{"type":"FeatureCollection","features":[{"type":"Feature","id":1,"properties":{"KECAMATAN":"UBUD","KELURAHAN":"KEDEWATAN","TIPEHAK":"Hak Milik","NIB":"03135","LUASTERTUL":2055.0,"LUASPETA":2061.94555392,"Tahap":2,"TIPE":null,"NOMOR":0.0,"NIBNIBEL":null,"NAMA":null,"ASALHAK":null,"DAFTAR":null,"BERAKHIR":null,"OBJECTID":1},"geometry":{"type":"Polygon","coordinates":[[[115.24459151,-8.49117987],[115.24459976,-8.49126191],[115.24461327,-8.49129969],[115.24465138,-8.49135622],[115.24465993,-8.4914204],[115.24469705,-8.49144101],[115.24471052,-8.4914352],[115.2447398,-8.49146174],[115.24478888,-8.491464],[115.24480471,-8.49147829],[115.24481244,-8.49150005],[115.24483845,-8.49150899],[115.24498064,-8.49143512],[115.24498623,-8.4914198],[115.2450024,-8.49134434],[115.24499213,-8.49130189],[115.24500144,-8.491232],[115.24503296,-8.49114542],[115.24502772,-8.49110775],[115.24503971,-8.4910418],[115.24506007,-8.49100251],[115.24506605,-8.49096606],[115.24503986,-8.49100163],[115.24501517,-8.49102271],[115.24495216,-8.49101055],[115.24493929,-8.49101756],[115.24490677,-8.49100455],[115.24489124,-8.49104596],[115.24485224,-8.49104335],[115.24482726,-8.49107282],[115.24474896,-8.49102666],[115.24472908,-8.49105214],[115.24464743,-8.49100429],[115.24462982,-8.49102055],[115.24462038,-8.49106665],[115.24460281,-8.49109108],[115.2445969,-8.49113703],[115.24459151,-8.49117987]]]}},{"type":"Feature","id":2,"properties":{"KECAMATAN":"UBUD","KELURAHAN":"KEDEWATAN","TIPEHAK":"Hak Milik","NIB":"02670","LUASTERTUL":840.0,"LUASPETA":843.4088271371241,"Tahap":2,"TIPE":null,"NOMOR":0.0,"NIBNIBEL":null,"NAMA":null,"ASALHAK":null,"DAFTAR":null,"BERAKHIR":null,"OBJECTID":2},"geometry":{"type":"Polygon","coordinates":[[[115.24519963,-8.4909398],[115.24515645,-8.4909227],[115.24515166,-8.49088459],[115.24510095,-8.49088487],[115.24509108,-8.49089951],[115.24507849,-8.49092538],[115.24508196,-8.49095219],[115.24507043,-8.49097345],[115.24506497,-8.49100344],[115.24504806,-8.49104522],[115.24503447,-8.49110799],[115.24503917,-8.49114865],[115.24500828,-8.49123574],[115.24499823,-8.49130125],[115.24500858,-8.49134499],[115.24498816,-8.49143514],[115.24501928,-8.49142762],[115.24505723,-8.49141989],[115.24509837,-8.49141272],[115.24512577,-8.4913863],[115.24514252,-8.49139744],[115.24518281,-8.49136818],[115.24515194,-8.49124749],[115.24516054,-8.49111834],[115.2451609,-8.49105947],[115.24519963,-8.4909398]]]}},{"type":"Feature","id":3,"properties":{"KECAMATAN":"UBUD","KELURAHAN":"KEDEWATAN","TIPEHAK":"Hak Milik","NIB":"02647","LUASTERTUL":1300.0,"LUASPETA":2775.0374834,"Tahap":1,"TIPE":null,"NOMOR":0.0,"NIBNIBEL":null,"NAMA":null,"ASALHAK":null,"DAFTAR":null,"BERAKHIR":null,"OBJECTID":3},"geometry":{"type":"Polygon","coordinates":[[[115.24407066,-8.4898074],[115.24407521,-8.48960664],[115.24408522,-8.4893961],[115.24412625,-8.48922348],[115.24414931,-8.48905997],[115.24406769,-8.48903037],[115.24394072,-8.48916781],[115.24380758,-8.48914584],[115.24366382,-8.48962054],[115.24376715,-8.48969488],[115.24407066,-8.4898074]]]}},{"type":"Feature","id":4,"properties":{"KECAMATAN":"UBUD","KELURAHAN":"KEDEWATAN","TIPEHAK":"Hak Milik","NIB":"03331","LUASTERTUL":2350.0,"LUASPETA":2172.65185811,"Tahap":2,"TIPE":null,"NOMOR":0.0,"NIBNIBEL":null,"NAMA":null,"ASALHAK":null,"DAFTAR":null,"BERAKHIR":null,"OBJECTID":4},"geometry":{"type":"Polygon","coordinates":[[[115.24519963,-8.4909398],[115.2451609,-8.49105947],[115.24516054,-8.49111834],[115.24515194,-8.49124749],[115.24518281,-8.49136818],[115.24519152,-8.49141679],[115.24533475,-8.4914518],[115.24562338,-8.49150429],[115.24565712,-8.49131472],[115.24532131,-8.49117629],[115.24543201,-8.49089983],[115.24529187,-8.49084989],[115.24522817,-8.49082292],[115.24519963,-8.4909398]]]}},{"type":"Feature","id":5,"properties":{"KECAMATAN":"UBUD","KELURAHAN":"KEDEWATAN","TIPEHAK":"Hak Milik","NIB":"03177","LUASTERTUL":3600.0,"LUASPETA":3710.59025215,"Tahap":2,"TIPE":null,"NOMOR":0.0,"NIBNIBEL":null,"NAMA":null,"ASALHAK":null,"DAFTAR":null,"BERAKHIR":null,"OBJECTID":5},"geometry":{"type":"Polygon","coordinates":[[[115.24399328,-8.49032284],[115.24399726,-8.49035251],[115.24395181,-8.49044704],[115.24390364,-8.49049071],[115.24389939,-8.49056155],[115.2438569,-8.49062705],[115.2438937,-8.49072048],[115.24394673,-8.49073493],[115.24400497,-8.49074543],[115.24404166,-8.49076046],[115.24408563,-8.49077042],[115.24413989,-8.49079214],[115.24417138,-8.49080626],[115.24424662,-8.49082972],[115.24447292,-8.49090792],[115.24453747,-8.49092378],[115.24461473,-8.49092906],[115.24462769,-8.49089326],[115.24462557,-8.49083402],[115.2446432,-8.4907684],[115.24469264,-8.49076707],[115.24469704,-8.49072452],[115.24473582,-8.49062195],[115.24473227,-8.49059335],[115.24471747,-8.4905661],[115.24435041,-8.49046447],[115.2442856,-8.49044559],[115.24404864,-8.49037614],[115.2440324,-8.49036041],[115.24403609,-8.49029929],[115.24402642,-8.49028376],[115.244008,-8.49028855],[115.24399073,-8.49031525],[115.24399328,-8.49032284]]]}},{"type":"Feature","id":6,"properties":{"KECAMATAN":"UBUD","KELURAHAN":"KEDEWATAN","TIPEHAK":"Hak Milik","NIB":"04625","LUASTERTUL":8530.0,"LUASPETA":7968.62885914,"Tahap":2,"TIPE":null,"NOMOR":0.0,"NIBNIBEL":null,"NAMA":null,"ASALHAK":null,"DAFTAR":null,"BERAKHIR":null,"OBJECTID":6},"geometry":{"type":"Polygon","coordinates":[[[115.24315492,-8.48985076],[115.24311712,-8.48989648],[115.24309354,-8.48992939],[115.24304484,-8.49001477],[115.24302464,-8.49006054],[115.24301614,-8.49007606],[115.24300767,-8.49008093],[115.24300116,-8.49007958],[115.24297764,-8.49004649],[115.24296607,-8.49002525],[115.24295045,-8.48998657],[115.24294818,-8.48997639],[115.24294592,-8.48992042],[115.24294472,-8.48990593],[115.24294884,-8.48985959],[115.24296276,-8.48972537],[115.2429574,-8.4897214],[115.24295115,-8.48972115],[115.2429103,-8.48973212],[115.2428672,-8.48974405],[115.24284365,-8.4897585],[115.24283297,-8.48977177],[115.24282912,-8.48985294],[115.2428291,-8.48994743],[115.24281695,-8.49002512],[115.24280841,-8.49005319],[115.24281032,-8.490136],[115.24278466,-8.49027435],[115.24276825,-8.49035091],[115.24276257,-8.49044835],[115.24272665,-8.49055016],[115.24272915,-8.49057714],[115.24272392,-8.49062516],[115.24271977,-8.49066327],[115.24276974,-8.49058329],[115.24294148,-8.49063333],[115.24304383,-8.49065814],[115.24316668,-8.49068898],[115.24331137,-8.49064662],[115.24348413,-8.49063754],[115.24358456,-8.49066186],[115.24358995,-8.49070629],[115.2436276,-8.49073787],[115.24365435,-8.49074373],[115.24371534,-8.49074816],[115.24367678,-8.49057681],[115.2436222,-8.4904949],[115.24357439,-8.49032491],[115.2436052,-8.49029969],[115.24369994,-8.49000719],[115.24368199,-8.48997809],[115.24366626,-8.48994947],[115.24358311,-8.48991556],[115.24353854,-8.48992346],[115.24346665,-8.48990725],[115.24345332,-8.48990424],[115.24335416,-8.48990089],[115.24330649,-8.48989613],[115.24319952,-8.48986385],[115.24317007,-8.48985475],[115.24316872,-8.48985729],[115.24315492,-8.48985076]]]}},{"type":"Feature","id":7,"properties":{"KECAMATAN":"UBUD","KELURAHAN":"KEDEWATAN","TIPEHAK":"Hak Milik","NIB":"00129","LUASTERTUL":6975.0,"LUASPETA":7375.26606231,"Tahap":1,"TIPE":null,"NOMOR":0.0,"NIBNIBEL":null,"NAMA":null,"ASALHAK":null,"DAFTAR":null,"BERAKHIR":null,"OBJECTID":7},"geometry":{"type":"Polygon","coordinates":[[[115.24407066,-8.4898074],[115.24419034,-8.48987005],[115.24424555,-8.48990442],[115.24425596,-8.48990871],[115.24428455,-8.48992255],[115.24440856,-8.49001164],[115.24456429,-8.4900783],[115.24464505,-8.49012837],[115.24475237,-8.49016309],[115.24481552,-8.49020153],[115.24485085,-8.49022526],[115.24485969,-8.4901957],[115.24487809,-8.49015142],[115.24489013,-8.49011627],[115.24490645,-8.49001294],[115.24487078,-8.48989777],[115.24480111,-8.48982826],[115.24478988,-8.48979314],[115.24475255,-8.48967649],[115.24477688,-8.48960954],[115.24477259,-8.48943541],[115.24474619,-8.48932621],[115.24471356,-8.48926599],[115.24445982,-8.48918128],[115.24430011,-8.48911467],[115.24414931,-8.48905997],[115.24412625,-8.48922348],[115.24408522,-8.4893961],[115.24407521,-8.48960664],[115.24407066,-8.4898074]]]}},{"type":"Feature","id":8,"properties":{"KECAMATAN":"UBUD","KELURAHAN":"KEDEWATAN","TIPEHAK":"Hak Guna Bangunan","NIB":"00937","LUASTERTUL":2720.0,"LUASPETA":1978.71653747,"Tahap":1,"TIPE":null,"NOMOR":5.0,"NIBNIBEL":null,"NAMA":"PT. Villa Ayu","ASALHAK":"Pemberian Hak Guna Bangunan","DAFTAR":"26 Nopember 1991","BERAKHIR":"2029-09-25","OBJECTID":8},"geometry":{"type":"Polygon","coordinates":[[[115.24541554,-8.49004274],[115.24542376,-8.49004783],[115.24543191,-8.48998425],[115.24542564,-8.48991523],[115.24537862,-8.48989997],[115.24537366,-8.48982768],[115.2454158,-8.48975292],[115.24539676,-8.48975141],[115.24539129,-8.4897232],[115.2453919,-8.48955084],[115.24543253,-8.48947493],[115.24537817,-8.48945994],[115.24532799,-8.48951337],[115.24529584,-8.48958873],[115.24529819,-8.48966739],[115.24526324,-8.48967613],[115.24527622,-8.48971264],[115.24515654,-8.48974046],[115.24513594,-8.48969197],[115.24499458,-8.48972448],[115.24501988,-8.48981766],[115.24489041,-8.48983928],[115.24487447,-8.48978092],[115.24478988,-8.48979314],[115.24480111,-8.48982826],[115.24487078,-8.48989777],[115.24490645,-8.49001294],[115.24498806,-8.48999519],[115.24518328,-8.48998827],[115.2453049,-8.48999742],[115.2453737,-8.49001683],[115.24541554,-8.49004274]]]}},{"type":"Feature","id":9,"properties":{"KECAMATAN":"UBUD","KELURAHAN":"KEDEWATAN","TIPEHAK":"Hak Milik","NIB":"03287","LUASTERTUL":2150.0,"LUASPETA":2022.60494282,"Tahap":1,"TIPE":null,"NOMOR":0.0,"NIBNIBEL":null,"NAMA":null,"ASALHAK":null,"DAFTAR":null,"BERAKHIR":null,"OBJECTID":9},"geometry":{"type":"Polygon","coordinates":[[[115.24563688,-8.49017827],[115.24570262,-8.48956534],[115.24570292,-8.48954159],[115.24556961,-8.48952014],[115.24541751,-8.48950349],[115.2453919,-8.48955084],[115.24539129,-8.4897232],[115.24539676,-8.48975141],[115.2454158,-8.48975292],[115.24537366,-8.48982768],[115.24537862,-8.48989997],[115.24542564,-8.48991523],[115.24543191,-8.48998425],[115.24542376,-8.49004783],[115.24542637,-8.49004944],[115.2454391,-8.49011684],[115.24553289,-8.49012547],[115.24563688,-8.49017827]]]}},{"type":"Feature","id":10,"properties":{"KECAMATAN":"UBUD","KELURAHAN":"KEDEWATAN","TIPEHAK":"Hak Milik","NIB":"02771","LUASTERTUL":140.0,"LUASPETA":233.43934117015866,"Tahap":2,"TIPE":null,"NOMOR":0.0,"NIBNIBEL":null,"NAMA":null,"ASALHAK":null,"DAFTAR":null,"BERAKHIR":null,"OBJECTID":10},"geometry":{"type":"Polygon","coordinates":[[[115.24304697,-8.49159175],[115.24307874,-8.49159821],[115.24313842,-8.49162218],[115.24323843,-8.49142082],[115.24322223,-8.49141311],[115.24320324,-8.49139695],[115.24316112,-8.49142853],[115.24309655,-8.49147682],[115.24308927,-8.49153339],[115.24304867,-8.49157841],[115.24304697,-8.49159175]]]}},{"type":"Feature","id":11,"properties":{"KECAMATAN":"UBUD","KELURAHAN":"KEDEWATAN","TIPEHAK":"Hak Milik","NIB":"01587","LUASTERTUL":350.0,"LUASPETA":137.51838575953653,"Tahap":1,"TIPE":null,"NOMOR":0.0,"NIBNIBEL":null,"NAMA":null,"ASALHAK":null,"DAFTAR":null,"BERAKHIR":null,"OBJECTID":11},"geometry":{"type":"Polygon","coordinates":[[[115.24335474,-8.48942727],[115.24334744,-8.48944791],[115.24352254,-8.48953914],[115.24354627,-8.48944013],[115.24344549,-8.48944006],[115.2433905,-8.48942874],[115.24335474,-8.48942727]]]}},{"type":"Feature","id":12,"properties":{"KECAMATAN":"UBUD","KELURAHAN":"KEDEWATAN","TIPEHAK":"Hak Milik","NIB":"02355","LUASTERTUL":1650.0,"LUASPETA":1678.89157127,"Tahap":2,"TIPE":null,"NOMOR":0.0,"NIBNIBEL":null,"NAMA":null,"ASALHAK":null,"DAFTAR":null,"BERAKHIR":null,"OBJECTID":12},"geometry":{"type":"Polygon","coordinates":[[[115.24510149,-8.49076962],[115.24503782,-8.49074866],[115.24496793,-8.49071268],[115.24489449,-8.49066906],[115.24484361,-8.49066039],[115.24478092,-8.49061344],[115.24473582,-8.49062195],[115.24469704,-8.49072452],[115.24469264,-8.49076707],[115.24470351,-8.49078702],[115.24469338,-8.49088913],[115.24465429,-8.49093647],[115.24464743,-8.49100429],[115.24472908,-8.49105214],[115.24474896,-8.49102666],[115.24482726,-8.49107282],[115.24485224,-8.49104335],[115.24489124,-8.49104596],[115.24490677,-8.49100455],[115.24493929,-8.49101756],[115.24495216,-8.49101055],[115.24501517,-8.49102271],[115.24503986,-8.49100163],[115.24506605,-8.49096606],[115.24510149,-8.49076962]]]}},{"type":"Feature","id":13,"properties":{"KECAMATAN":"UBUD","KELURAHAN":"KEDEWATAN","TIPEHAK":"Hak Milik","NIB":"00776","LUASTERTUL":2100.0,"LUASPETA":2361.52956178,"Tahap":2,"TIPE":null,"NOMOR":0.0,"NIBNIBEL":null,"NAMA":null,"ASALHAK":null,"DAFTAR":null,"BERAKHIR":null,"OBJECTID":13},"geometry":{"type":"Polygon","coordinates":[[[115.24472928,-8.49202122],[115.24472814,-8.49201606],[115.24473834,-8.49191963],[115.24474086,-8.4918958],[115.24475008,-8.49180858],[115.24477607,-8.49176485],[115.24481321,-8.49174392],[115.24479871,-8.49172014],[115.24479667,-8.49170896],[115.24471235,-8.49169419],[115.24465144,-8.49166681],[115.24459921,-8.49165495],[115.2444469,-8.49165486],[115.24426848,-8.49169487],[115.24418923,-8.49168619],[115.24420411,-8.49171525],[115.24420058,-8.49175583],[115.24412149,-8.49192853],[115.24412514,-8.49192833],[115.24415859,-8.49194324],[115.24417453,-8.49194642],[115.24419728,-8.49194697],[115.24422013,-8.49194532],[115.24424257,-8.4919403],[115.24425973,-8.49198678],[115.24427104,-8.49198854],[115.24429342,-8.49199164],[115.24436301,-8.49199141],[115.24436732,-8.49201613],[115.24438845,-8.49201582],[115.24441185,-8.49201691],[115.24443141,-8.49200686],[115.24445476,-8.49200602],[115.24450056,-8.49201225],[115.24454496,-8.49202141],[115.24463225,-8.4920324],[115.24465389,-8.49203769],[115.24469755,-8.49203935],[115.24472549,-8.49203992],[115.24472928,-8.49202122]]]}},{"type":"Feature","id":14,"properties":{"KECAMATAN":"UBUD","KELURAHAN":"KEDEWATAN","TIPEHAK":"Hak Milik","NIB":"01270","LUASTERTUL":2420.0,"LUASPETA":2420.4795373,"Tahap":1,"TIPE":null,"NOMOR":0.0,"NIBNIBEL":null,"NAMA":null,"ASALHAK":null,"DAFTAR":null,"BERAKHIR":null,"OBJECTID":14},"geometry":{"type":"Polygon","coordinates":[[[115.24573882,-8.48952242],[115.2457331,-8.48956963],[115.24571966,-8.4897628],[115.2456758,-8.49013732],[115.24593953,-8.49021463],[115.24595481,-8.49013993],[115.24600396,-8.48989953],[115.24602779,-8.48975212],[115.24603061,-8.48973473],[115.2460413,-8.48966901],[115.24606043,-8.48950456],[115.24598771,-8.48951033],[115.24590047,-8.48952293],[115.24585921,-8.48951965],[115.24573882,-8.48952242]]]}},{"type":"Feature","id":15,"properties":{"KECAMATAN":"UBUD","KELURAHAN":"KEDEWATAN","TIPEHAK":"Hak Milik","NIB":"01044","LUASTERTUL":1500.0,"LUASPETA":972.0396289002875,"Tahap":1,"TIPE":null,"NOMOR":0.0,"NIBNIBEL":null,"NAMA":null,"ASALHAK":null,"DAFTAR":null,"BERAKHIR":null,"OBJECTID":15},"geometry":{"type":"Polygon","coordinates":[[[115.24366382,-8.48962054],[115.24380758,-8.48914584],[115.24371434,-8.48913045],[115.2436263,-8.48910617],[115.24352254,-8.48953914],[115.24362458,-8.48959231],[115.24366382,-8.48962054]]]}},{"type":"Feature","id":16,"properties":{"KECAMATAN":"UBUD","KELURAHAN":"KEDEWATAN","TIPEHAK":"Hak Milik","NIB":"01112","LUASTERTUL":1007.0,"LUASPETA":888.1950029558514,"Tahap":1,"TIPE":null,"NOMOR":0.0,"NIBNIBEL":null,"NAMA":null,"ASALHAK":null,"DAFTAR":null,"BERAKHIR":null,"OBJECTID":16},"geometry":{"type":"Polygon","coordinates":[[[115.24401185,-8.48850664],[115.24402501,-8.48844422],[115.24404202,-8.48841036],[115.24370351,-8.48822936],[115.24356444,-8.48845606],[115.24401185,-8.48850664]]]}},{"type":"Feature","id":17,"properties":{"KECAMATAN":"UBUD","KELURAHAN":"KEDEWATAN","TIPEHAK":"Hak Guna Bangunan","NIB":null,"LUASTERTUL":1370.0,"LUASPETA":1342.45390595,"Tahap":1,"TIPE":null,"NOMOR":0.0,"NIBNIBEL":null,"NAMA":null,"ASALHAK":null,"DAFTAR":null,"BERAKHIR":null,"OBJECTID":17},"geometry":{"type":"Polygon","coordinates":[[[115.24402983,-8.48969823],[115.24404141,-8.48966296],[115.24401518,-8.48963867],[115.24404191,-8.48957343],[115.24403393,-8.48946942],[115.24396438,-8.48946552],[115.2439064,-8.48948882],[115.24387796,-8.48951861],[115.2438386,-8.48961393],[115.24379326,-8.48967654],[115.24377279,-8.48981214],[115.24379519,-8.48985363],[115.24376043,-8.48991547],[115.24395237,-8.49000658],[115.24408784,-8.49003434],[115.24399021,-8.48988],[115.24401482,-8.4897806],[115.24402983,-8.48969823]]]}},{"type":"Feature","id":18,"properties":{"KECAMATAN":"UBUD","KELURAHAN":"KEDEWATAN","TIPEHAK":"Hak Milik","NIB":"02411","LUASTERTUL":2400.0,"LUASPETA":2392.8274906,"Tahap":2,"TIPE":null,"NOMOR":0.0,"NIBNIBEL":null,"NAMA":null,"ASALHAK":null,"DAFTAR":null,"BERAKHIR":null,"OBJECTID":18},"geometry":{"type":"Polygon","coordinates":[[[115.24289996,-8.49094811],[115.2429447,-8.49096166],[115.24302031,-8.49093242],[115.243063,-8.49096947],[115.24310551,-8.49095712],[115.24316477,-8.49101636],[115.24325365,-8.49105819],[115.24327997,-8.49104682],[115.24332876,-8.49108503],[115.2434016,-8.49105552],[115.24343032,-8.49092902],[115.24346167,-8.49077115],[115.243466,-8.49067064],[115.24348413,-8.49063754],[115.24331137,-8.49064662],[115.24316668,-8.49068898],[115.24304383,-8.49065814],[115.24294148,-8.49063333],[115.24283026,-8.490927],[115.24289996,-8.49094811]]]}},{"type":"Feature","id":19,"properties":{"KECAMATAN":"UBUD","KELURAHAN":"KEDEWATAN","TIPEHAK":"Hak Milik","NIB":"02354","LUASTERTUL":1400.0,"LUASPETA":1432.77767254,"Tahap":2,"TIPE":null,"NOMOR":0.0,"NIBNIBEL":null,"NAMA":null,"ASALHAK":null,"DAFTAR":null,"BERAKHIR":null,"OBJECTID":19},"geometry":{"type":"Polygon","coordinates":[[[115.24460281,-8.49109108],[115.24455411,-8.49108094],[115.24454137,-8.49109155],[115.24447498,-8.49107381],[115.24436455,-8.49102438],[115.24425885,-8.49098935],[115.24413242,-8.49093865],[115.24399211,-8.4909163],[115.24395788,-8.49089013],[115.24387074,-8.49108727],[115.244164,-8.49115054],[115.24419072,-8.49110672],[115.24441956,-8.49118772],[115.24442823,-8.49125225],[115.24445476,-8.4912718],[115.2445136,-8.49124353],[115.2445534,-8.49125047],[115.24459151,-8.49117987],[115.2445969,-8.49113703],[115.24460281,-8.49109108]]]}},{"type":"Feature","id":20,"properties":{"KECAMATAN":"UBUD","KELURAHAN":"KEDEWATAN","TIPEHAK":"Hak Milik","NIB":"02633","LUASTERTUL":200.0,"LUASPETA":251.26969147491275,"Tahap":1,"TIPE":null,"NOMOR":0.0,"NIBNIBEL":null,"NAMA":null,"ASALHAK":null,"DAFTAR":null,"BERAKHIR":null,"OBJECTID":20},"geometry":{"type":"Polygon","coordinates":[[[115.24574389,-8.48820222],[115.24573846,-8.48806103],[115.24561427,-8.48805614],[115.24561257,-8.48812092],[115.24560264,-8.48822991],[115.24574389,-8.48820222]]]}},{"type":"Feature","id":21,"properties":{"KECAMATAN":"UBUD","KELURAHAN":"KEDEWATAN","TIPEHAK":"Hak Milik","NIB":"02800","LUASTERTUL":1570.0,"LUASPETA":1592.23625296,"Tahap":2,"TIPE":null,"NOMOR":0.0,"NIBNIBEL":null,"NAMA":null,"ASALHAK":null,"DAFTAR":null,"BERAKHIR":null,"OBJECTID":21},"geometry":{"type":"Polygon","coordinates":[[[115.24382757,-8.49107553],[115.24381642,-8.49108532],[115.24381076,-8.49114812],[115.24384292,-8.49118036],[115.24386399,-8.49122994],[115.24387585,-8.49123208],[115.24392757,-8.49124356],[115.24396167,-8.49125644],[115.24407216,-8.49131333],[115.24413456,-8.49132102],[115.24418293,-8.49132193],[115.24421295,-8.49133691],[115.24432216,-8.49136035],[115.24433361,-8.49139206],[115.2443904,-8.49140746],[115.24442559,-8.49140267],[115.2444349,-8.49141467],[115.24446594,-8.49142249],[115.24449814,-8.49144281],[115.24451029,-8.49141902],[115.24453938,-8.4914255],[115.24454313,-8.49132211],[115.24455263,-8.49129767],[115.24454494,-8.49127728],[115.2445534,-8.49125047],[115.2445136,-8.49124353],[115.24445476,-8.4912718],[115.24442823,-8.49125225],[115.24441956,-8.49118772],[115.24419072,-8.49110672],[115.244164,-8.49115054],[115.24387074,-8.49108727],[115.2438573,-8.49108596],[115.24383597,-8.49108425],[115.24382757,-8.49107553]]]}},{"type":"Feature","id":22,"properties":{"KECAMATAN":"UBUD","KELURAHAN":"KEDEWATAN","TIPEHAK":"Hak Milik","NIB":"02997","LUASTERTUL":565.0,"LUASPETA":782.1496553067931,"Tahap":1,"TIPE":null,"NOMOR":0.0,"NIBNIBEL":null,"NAMA":null,"ASALHAK":null,"DAFTAR":null,"BERAKHIR":null,"OBJECTID":22},"geometry":{"type":"Polygon","coordinates":[[[115.24601616,-8.49041809],[115.24592851,-8.49033867],[115.24593091,-8.49031568],[115.24578894,-8.49025546],[115.24573481,-8.49038349],[115.24566043,-8.49050654],[115.24574009,-8.49051908],[115.24579616,-8.49053345],[115.2458544,-8.49054662],[115.24593023,-8.49057281],[115.24594193,-8.49056866],[115.24601616,-8.49041809]]]}},{"type":"Feature","id":23,"properties":{"KECAMATAN":"UBUD","KELURAHAN":"KEDEWATAN","TIPEHAK":"Hak Milik","NIB":"03130","LUASTERTUL":1650.0,"LUASPETA":1747.36324281,"Tahap":2,"TIPE":null,"NOMOR":0.0,"NIBNIBEL":null,"NAMA":null,"ASALHAK":null,"DAFTAR":null,"BERAKHIR":null,"OBJECTID":23},"geometry":{"type":"Polygon","coordinates":[[[115.24443108,-8.49010472],[115.24435041,-8.49046447],[115.24471747,-8.4905661],[115.24473227,-8.49059335],[115.24474063,-8.4905768],[115.24474215,-8.49057503],[115.24476592,-8.49053958],[115.24472555,-8.4904207],[115.24476256,-8.49038106],[115.24477002,-8.49035151],[115.24476239,-8.49032713],[115.24478638,-8.49026248],[115.24485407,-8.49027659],[115.24488302,-8.49027557],[115.2445757,-8.49013826],[115.24448294,-8.49009383],[115.24443851,-8.49009034],[115.24443108,-8.49010472]]]}},{"type":"Feature","id":24,"properties":{"KECAMATAN":"UBUD","KELURAHAN":"KEDEWATAN","TIPEHAK":"Hak Milik","NIB":"02333","LUASTERTUL":2000.0,"LUASPETA":2058.69207416,"Tahap":2,"TIPE":null,"NOMOR":0.0,"NIBNIBEL":null,"NAMA":null,"ASALHAK":null,"DAFTAR":null,"BERAKHIR":null,"OBJECTID":24},"geometry":{"type":"Polygon","coordinates":[[[115.24396167,-8.49125644],[115.24396158,-8.49126727],[115.24397025,-8.49137433],[115.24404076,-8.4914828],[115.24406917,-8.49158632],[115.24413353,-8.49164057],[115.24418923,-8.49168619],[115.24426848,-8.49169487],[115.2444469,-8.49165487],[115.24455355,-8.49163057],[115.2447116,-8.49166173],[115.24474055,-8.49167336],[115.2447119,-8.49159999],[115.24462833,-8.49156324],[115.24456192,-8.49153166],[115.24453108,-8.49148919],[115.24451992,-8.49144734],[115.24449814,-8.49144281],[115.24446594,-8.49142249],[115.2444349,-8.49141467],[115.24442559,-8.49140267],[115.2443904,-8.49140746],[115.24433361,-8.49139206],[115.24432216,-8.49136035],[115.24421295,-8.49133691],[115.24418293,-8.49132193],[115.24413456,-8.49132102],[115.24407216,-8.49131333],[115.24396167,-8.49125644]]]}},{"type":"Feature","id":25,"properties":{"KECAMATAN":"UBUD","KELURAHAN":"KEDEWATAN","TIPEHAK":"Hak Milik","NIB":"02390","LUASTERTUL":2675.0,"LUASPETA":2672.60790282,"Tahap":2,"TIPE":null,"NOMOR":0.0,"NIBNIBEL":null,"NAMA":null,"ASALHAK":null,"DAFTAR":null,"BERAKHIR":null,"OBJECTID":25},"geometry":{"type":"Polygon","coordinates":[[[115.24389161,-8.49000538],[115.24369994,-8.49000719],[115.2436052,-8.49029969],[115.24357439,-8.49032491],[115.2436222,-8.4904949],[115.24367678,-8.49057681],[115.24371534,-8.49074816],[115.24377202,-8.49080562],[115.24379672,-8.49094781],[115.2437916,-8.49097607],[115.24382019,-8.49098938],[115.24385917,-8.49093008],[115.24389078,-8.49081298],[115.2438937,-8.49072048],[115.2438569,-8.49062705],[115.24389939,-8.49056155],[115.24390364,-8.49049071],[115.24395181,-8.49044704],[115.24399726,-8.49035251],[115.24399328,-8.49032284],[115.24392351,-8.490272],[115.24390095,-8.49024072],[115.24389161,-8.49000538]]]}},{"type":"Feature","id":26,"properties":{"KECAMATAN":"UBUD","KELURAHAN":"KEDEWATAN","TIPEHAK":"Hak Guna Bangunan","NIB":"00940","LUASTERTUL":1880.0,"LUASPETA":1687.29226372,"Tahap":1,"TIPE":null,"NOMOR":3.0,"NIBNIBEL":null,"NAMA":"PT. Villa Ayu","ASALHAK":"Pemberian Hak Guna Bangunan","DAFTAR":"26 Nopember 1991","BERAKHIR":"2029-09-25","OBJECTID":26},"geometry":{"type":"Polygon","coordinates":[[[115.24441811,-8.48737285],[115.24471224,-8.48740946],[115.24481057,-8.48742758],[115.24481666,-8.48710057],[115.24477187,-8.48709963],[115.24476574,-8.48709926],[115.24474847,-8.48709821],[115.24447491,-8.48708153],[115.24432996,-8.4870727],[115.24435084,-8.48722751],[115.24441811,-8.48737285]]]}},{"type":"Feature","id":27,"properties":{"KECAMATAN":"UBUD","KELURAHAN":"KEDEWATAN","TIPEHAK":"Hak Milik","NIB":"02392","LUASTERTUL":475.0,"LUASPETA":516.8261030136002,"Tahap":2,"TIPE":null,"NOMOR":0.0,"NIBNIBEL":null,"NAMA":null,"ASALHAK":null,"DAFTAR":null,"BERAKHIR":null,"OBJECTID":27},"geometry":{"type":"Polygon","coordinates":[[[115.24399328,-8.49032284],[115.24399073,-8.49031525],[115.244008,-8.49028855],[115.24402642,-8.49028376],[115.24402649,-8.49025666],[115.24406084,-8.49009867],[115.24407328,-8.49008237],[115.24405141,-8.49007002],[115.24404123,-8.49003034],[115.2440653,-8.49001494],[115.24406988,-8.4900009],[115.24389161,-8.49000538],[115.24390095,-8.49024072],[115.24392351,-8.490272],[115.24399328,-8.49032284]]]}},{"type":"Feature","id":28,"properties":{"KECAMATAN":"UBUD","KELURAHAN":"KEDEWATAN","TIPEHAK":"Hak Guna Bangunan","NIB":"00939","LUASTERTUL":1620.0,"LUASPETA":1640.90724363,"Tahap":1,"TIPE":null,"NOMOR":2.0,"NIBNIBEL":null,"NAMA":"PT. Villa Ayu","ASALHAK":"Pemberian Hak Guna Bangunan","DAFTAR":"26 Nopember 1991","BERAKHIR":"2029-09-25","OBJECTID":28},"geometry":{"type":"Polygon","coordinates":[[[115.24441811,-8.48737285],[115.24443919,-8.48761164],[115.24445312,-8.48776941],[115.24479624,-8.48776047],[115.24481057,-8.48742758],[115.24471224,-8.48740946],[115.24441811,-8.48737285]]]}},{"type":"Feature","id":29,"properties":{"KECAMATAN":"UBUD","KELURAHAN":"KEDEWATAN","TIPEHAK":"Hak Milik","NIB":"02760","LUASTERTUL":825.0,"LUASPETA":840.2918534630442,"Tahap":1,"TIPE":null,"NOMOR":0.0,"NIBNIBEL":null,"NAMA":null,"ASALHAK":null,"DAFTAR":null,"BERAKHIR":null,"OBJECTID":29},"geometry":{"type":"Polygon","coordinates":[[[115.24599502,-8.48816308],[115.24598143,-8.48788924],[115.24595379,-8.48789206],[115.24574009,-8.48791532],[115.24574994,-8.48806123],[115.24573846,-8.48806103],[115.24574389,-8.48820222],[115.24599502,-8.48816308]]]}},{"type":"Feature","id":30,"properties":{"KECAMATAN":"UBUD","KELURAHAN":"KEDEWATAN","TIPEHAK":"Hak Milik","NIB":null,"LUASTERTUL":1710.0,"LUASPETA":1736.24242678,"Tahap":2,"TIPE":null,"NOMOR":0.0,"NIBNIBEL":null,"NAMA":null,"ASALHAK":null,"DAFTAR":null,"BERAKHIR":null,"OBJECTID":30},"geometry":{"type":"Polygon","coordinates":[[[115.24406988,-8.4900009],[115.2440653,-8.49001494],[115.24404123,-8.49003034],[115.24405141,-8.49007002],[115.24407328,-8.49008237],[115.24406084,-8.49009867],[115.24402649,-8.49025666],[115.24402642,-8.49028376],[115.24403609,-8.49029929],[115.2440324,-8.49036041],[115.24404864,-8.49037614],[115.2442856,-8.49044559],[115.24435041,-8.49046447],[115.24443108,-8.49010472],[115.24434565,-8.49006479],[115.24421963,-8.49002762],[115.24418131,-8.48998063],[115.24409841,-8.48994088],[115.24406988,-8.4900009]]]}},{"type":"Feature","id":31,"properties":{"KECAMATAN":"UBUD","KELURAHAN":"KEDEWATAN","TIPEHAK":"Hak Milik","NIB":"00238","LUASTERTUL":1200.0,"LUASPETA":1774.24502186,"Tahap":1,"TIPE":null,"NOMOR":0.0,"NIBNIBEL":null,"NAMA":null,"ASALHAK":null,"DAFTAR":null,"BERAKHIR":null,"OBJECTID":31},"geometry":{"type":"Polygon","coordinates":[[[115.24398451,-8.487459],[115.24402032,-8.48748195],[115.24406288,-8.48754123],[115.2440652,-8.4875451],[115.24410074,-8.4876043],[115.24410201,-8.48761062],[115.24443919,-8.48761164],[115.24441811,-8.48737285],[115.24435701,-8.48724307],[115.24407305,-8.48724206],[115.24400176,-8.48724304],[115.24398451,-8.487459]]]}},{"type":"Feature","id":32,"properties":{"KECAMATAN":"UBUD","KELURAHAN":"KEDEWATAN","TIPEHAK":"Hak Milik","NIB":"02604","LUASTERTUL":200.0,"LUASPETA":216.02289216230437,"Tahap":1,"TIPE":null,"NOMOR":0.0,"NIBNIBEL":null,"NAMA":null,"ASALHAK":null,"DAFTAR":null,"BERAKHIR":null,"OBJECTID":32},"geometry":{"type":"Polygon","coordinates":[[[115.24573846,-8.48806103],[115.24574994,-8.48806123],[115.24574009,-8.48791532],[115.24561763,-8.48792754],[115.24561427,-8.48805614],[115.24573846,-8.48806103]]]}},{"type":"Feature","id":33,"properties":{"KECAMATAN":"UBUD","KELURAHAN":"KEDEWATAN","TIPEHAK":"Hak Milik","NIB":"02770","LUASTERTUL":680.0,"LUASPETA":685.0951809539408,"Tahap":2,"TIPE":null,"NOMOR":0.0,"NIBNIBEL":null,"NAMA":null,"ASALHAK":null,"DAFTAR":null,"BERAKHIR":null,"OBJECTID":33},"geometry":{"type":"Polygon","coordinates":[[[115.24358995,-8.49070629],[115.24353866,-8.49074898],[115.24352029,-8.49081447],[115.24351865,-8.49087675],[115.24352551,-8.49091266],[115.2435098,-8.49093877],[115.24349106,-8.4911052],[115.24352829,-8.49115157],[115.24360113,-8.49119726],[115.2436214,-8.49120081],[115.24365435,-8.49074373],[115.2436276,-8.49073787],[115.24358995,-8.49070629]]]}},{"type":"Feature","id":34,"properties":{"KECAMATAN":"UBUD","KELURAHAN":"KEDEWATAN","TIPEHAK":"Hak Milik","NIB":"04385","LUASTERTUL":1540.0,"LUASPETA":1613.39943595,"Tahap":2,"TIPE":null,"NOMOR":0.0,"NIBNIBEL":null,"NAMA":null,"ASALHAK":null,"DAFTAR":null,"BERAKHIR":null,"OBJECTID":34},"geometry":{"type":"Polygon","coordinates":[[[115.24294148,-8.49063333],[115.24276974,-8.49058329],[115.24271977,-8.49066327],[115.24271297,-8.49072567],[115.24269116,-8.49081508],[115.24260651,-8.49086902],[115.24259938,-8.49090412],[115.24261487,-8.49095409],[115.24256813,-8.49106338],[115.24260958,-8.49107893],[115.24262569,-8.49112101],[115.24263239,-8.49111199],[115.24268689,-8.49112971],[115.24269103,-8.49115738],[115.24271969,-8.49117235],[115.24280802,-8.49122808],[115.24282077,-8.49125338],[115.24288241,-8.49103544],[115.24289996,-8.49094811],[115.24283026,-8.490927],[115.24294148,-8.49063333]]]}},{"type":"Feature","id":35,"properties":{"KECAMATAN":"UBUD","KELURAHAN":"KEDEWATAN","TIPEHAK":"Hak Milik","NIB":"04535","LUASTERTUL":530.0,"LUASPETA":734.5549080562075,"Tahap":1,"TIPE":null,"NOMOR":0.0,"NIBNIBEL":null,"NAMA":null,"ASALHAK":null,"DAFTAR":null,"BERAKHIR":null,"OBJECTID":35},"geometry":{"type":"Polygon","coordinates":[[[115.24502445,-8.48890403],[115.24500911,-8.48867196],[115.24475231,-8.48867227],[115.244755,-8.48884978],[115.24475196,-8.48889881],[115.24502445,-8.48890403]]]}},{"type":"Feature","id":36,"properties":{"KECAMATAN":"UBUD","KELURAHAN":"KEDEWATAN","TIPEHAK":"Hak Milik","NIB":"02046","LUASTERTUL":696.0,"LUASPETA":1069.10082243,"Tahap":1,"TIPE":null,"NOMOR":0.0,"NIBNIBEL":null,"NAMA":null,"ASALHAK":null,"DAFTAR":null,"BERAKHIR":null,"OBJECTID":36},"geometry":{"type":"Polygon","coordinates":[[[115.24518878,-8.48799704],[115.24523808,-8.48799529],[115.24558448,-8.48800028],[115.24558517,-8.48798747],[115.24559416,-8.48778476],[115.24521921,-8.48777386],[115.24518726,-8.48777434],[115.24518878,-8.48799704]]]}},{"type":"Feature","id":37,"properties":{"KECAMATAN":"UBUD","KELURAHAN":"KEDEWATAN","TIPEHAK":"Hak Milik","NIB":"02047","LUASTERTUL":800.0,"LUASPETA":1879.34073546,"Tahap":1,"TIPE":null,"NOMOR":0.0,"NIBNIBEL":null,"NAMA":null,"ASALHAK":null,"DAFTAR":null,"BERAKHIR":null,"OBJECTID":37},"geometry":{"type":"Polygon","coordinates":[[[115.24518878,-8.48799704],[115.24500556,-8.48799661],[115.24500238,-8.48832304],[115.24520798,-8.48826601],[115.24557178,-8.48823575],[115.24558448,-8.48800028],[115.24523808,-8.48799529],[115.24518878,-8.48799704]]]}},{"type":"Feature","id":38,"properties":{"KECAMATAN":"UBUD","KELURAHAN":"KEDEWATAN","TIPEHAK":"Hak Milik","NIB":"02048","LUASTERTUL":806.0,"LUASPETA":919.7688601745164,"Tahap":1,"TIPE":null,"NOMOR":0.0,"NIBNIBEL":null,"NAMA":null,"ASALHAK":null,"DAFTAR":null,"BERAKHIR":null,"OBJECTID":38},"geometry":{"type":"Polygon","coordinates":[[[115.24526782,-8.48867126],[115.24556671,-8.48864305],[115.24556676,-8.48862468],[115.24556464,-8.48842538],[115.24524494,-8.48842401],[115.24523989,-8.48867124],[115.24526782,-8.48867126]]]}},{"type":"Feature","id":39,"properties":{"KECAMATAN":"UBUD","KELURAHAN":"KEDEWATAN","TIPEHAK":"Hak Milik","NIB":"02050","LUASTERTUL":744.0,"LUASPETA":729.9829068565083,"Tahap":1,"TIPE":null,"NOMOR":0.0,"NIBNIBEL":null,"NAMA":null,"ASALHAK":null,"DAFTAR":null,"BERAKHIR":null,"OBJECTID":39},"geometry":{"type":"Polygon","coordinates":[[[115.24536115,-8.48890013],[115.24532665,-8.4891507],[115.24539892,-8.48916518],[115.24556083,-8.48920377],[115.24556601,-8.48891195],[115.24536115,-8.48890013]]]}},{"type":"Feature","id":40,"properties":{"KECAMATAN":"UBUD","KELURAHAN":"KEDEWATAN","TIPEHAK":"Hak Milik","NIB":"02052","LUASTERTUL":950.0,"LUASPETA":967.895418230493,"Tahap":1,"TIPE":null,"NOMOR":3807.0,"NIBNIBEL":"2052","NAMA":"Desa Pekraman Kedewatan","ASALHAK":"Konversi","DAFTAR":"13 Agustus 2018","BERAKHIR":null,"OBJECTID":40},"geometry":{"type":"Polygon","coordinates":[[[115.24598143,-8.48788924],[115.24599502,-8.48816308],[115.24629047,-8.48813526],[115.24627117,-8.48787414],[115.24627089,-8.4878681],[115.24598143,-8.48788924]]]}},{"type":"Feature","id":41,"properties":{"KECAMATAN":"UBUD","KELURAHAN":"KEDEWATAN","TIPEHAK":"Hak Milik","NIB":"02058","LUASTERTUL":688.0,"LUASPETA":675.1739229820499,"Tahap":1,"TIPE":null,"NOMOR":0.0,"NIBNIBEL":null,"NAMA":null,"ASALHAK":null,"DAFTAR":null,"BERAKHIR":null,"OBJECTID":41},"geometry":{"type":"Polygon","coordinates":[[[115.24606043,-8.48950456],[115.24615607,-8.48951363],[115.246249,-8.4895151],[115.24634002,-8.48950413],[115.24634424,-8.489333],[115.24634379,-8.4893209],[115.24621453,-8.48932366],[115.246034,-8.48932352],[115.24605846,-8.48949803],[115.24606043,-8.48950456]]]}},{"type":"Feature","id":42,"properties":{"KECAMATAN":"UBUD","KELURAHAN":"KEDEWATAN","TIPEHAK":"Hak Milik","NIB":"02059","LUASTERTUL":877.0,"LUASPETA":870.3894341780825,"Tahap":1,"TIPE":null,"NOMOR":0.0,"NIBNIBEL":null,"NAMA":null,"ASALHAK":null,"DAFTAR":null,"BERAKHIR":null,"OBJECTID":42},"geometry":{"type":"Polygon","coordinates":[[[115.24602779,-8.48975212],[115.24631,-8.48977178],[115.2463379,-8.48958988],[115.24634002,-8.48950413],[115.246249,-8.4895151],[115.24615607,-8.48951363],[115.24606043,-8.48950456],[115.2460413,-8.48966901],[115.24603061,-8.48973473],[115.24602779,-8.48975212]]]}},{"type":"Feature","id":43,"properties":{"KECAMATAN":"UBUD","KELURAHAN":"KEDEWATAN","TIPEHAK":"Hak Milik","NIB":"02257","LUASTERTUL":2229.0,"LUASPETA":2171.37023523,"Tahap":1,"TIPE":null,"NOMOR":0.0,"NIBNIBEL":null,"NAMA":null,"ASALHAK":null,"DAFTAR":null,"BERAKHIR":null,"OBJECTID":43},"geometry":{"type":"Polygon","coordinates":[[[115.24589511,-8.48688983],[115.24517408,-8.48691023],[115.2451744,-8.48696987],[115.24517902,-8.48708398],[115.24519928,-8.48711848],[115.24526182,-8.48714753],[115.24545594,-8.48719322],[115.24555694,-8.48721514],[115.24560613,-8.48723673],[115.24561283,-8.48711336],[115.24589497,-8.48709787],[115.24589511,-8.48688983]]]}},{"type":"Feature","id":44,"properties":{"KECAMATAN":"UBUD","KELURAHAN":"KEDEWATAN","TIPEHAK":"Hak Milik","NIB":"04513","LUASTERTUL":1700.0,"LUASPETA":1447.12920666,"Tahap":1,"TIPE":null,"NOMOR":0.0,"NIBNIBEL":null,"NAMA":null,"ASALHAK":null,"DAFTAR":null,"BERAKHIR":null,"OBJECTID":44},"geometry":{"type":"Polygon","coordinates":[[[115.24410376,-8.48794503],[115.24417065,-8.48800135],[115.2441961,-8.48822006],[115.24419831,-8.48829309],[115.24454936,-8.48834429],[115.24456479,-8.48813155],[115.24447214,-8.48812491],[115.24447377,-8.48797961],[115.24444632,-8.48797936],[115.24429717,-8.48796441],[115.24410376,-8.48794503]]]}},{"type":"Feature","id":45,"properties":{"KECAMATAN":"UBUD","KELURAHAN":"KEDEWATAN","TIPEHAK":"Hak Guna Bangunan","NIB":"04514","LUASTERTUL":3165.0,"LUASPETA":3166.13231242,"Tahap":1,"TIPE":null,"NOMOR":0.0,"NIBNIBEL":"22.000006084.0","NAMA":"PT. Villa Ayu","ASALHAK":"Jual Beli","DAFTAR":"45559","BERAKHIR":"2053-03-10","OBJECTID":45},"geometry":{"type":"Polygon","coordinates":[[[115.24468295,-8.48855999],[115.24447851,-8.48855659],[115.24447429,-8.48875016],[115.24415004,-8.48874052],[115.24401817,-8.48900025],[115.2440603,-8.48902046],[115.24407704,-8.48900228],[115.24419846,-8.48902557],[115.24421686,-8.48904173],[115.24425376,-8.48905156],[115.24434615,-8.48909706],[115.2444066,-8.48913757],[115.24444129,-8.48911056],[115.24447183,-8.48912406],[115.24456805,-8.48921741],[115.24460789,-8.48923071],[115.24462232,-8.48923233],[115.24466836,-8.48922234],[115.24466235,-8.48918329],[115.24466432,-8.48912971],[115.24472565,-8.48907174],[115.24473737,-8.48905247],[115.24469026,-8.48900326],[115.24467488,-8.4889827],[115.24468295,-8.48855999]]]}},{"type":"Feature","id":46,"properties":{"KECAMATAN":"UBUD","KELURAHAN":"KEDEWATAN","TIPEHAK":"Hak Milik","NIB":"04515","LUASTERTUL":1670.0,"LUASPETA":2134.80258668,"Tahap":1,"TIPE":null,"NOMOR":0.0,"NIBNIBEL":null,"NAMA":null,"ASALHAK":null,"DAFTAR":null,"BERAKHIR":null,"OBJECTID":46},"geometry":{"type":"Polygon","coordinates":[[[115.24447377,-8.48797961],[115.24447214,-8.48812491],[115.24456479,-8.48813155],[115.24454936,-8.48834429],[115.24461295,-8.48835356],[115.24474753,-8.48835624],[115.2448409,-8.48835811],[115.24495246,-8.48833689],[115.24500238,-8.48832304],[115.24500556,-8.48799661],[115.24477551,-8.48798234],[115.24473884,-8.48798201],[115.24447377,-8.48797961]]]}},{"type":"Feature","id":47,"properties":{"KECAMATAN":"UBUD","KELURAHAN":"KEDEWATAN","TIPEHAK":"Hak Milik","NIB":"03462","LUASTERTUL":840.0,"LUASPETA":829.6780391919195,"Tahap":1,"TIPE":null,"NOMOR":4535.0,"NIBNIBEL":"3462","NAMA":"Desa Adat Kedewatan","ASALHAK":"Konversi","DAFTAR":"05 Juni 2023","BERAKHIR":null,"OBJECTID":47},"geometry":{"type":"Polygon","coordinates":[[[115.24481666,-8.48710057],[115.24514413,-8.48710746],[115.2451412,-8.48698653],[115.24513928,-8.48689493],[115.24482456,-8.48688861],[115.24481666,-8.48710057]]]}},{"type":"Feature","id":48,"properties":{"KECAMATAN":"UBUD","KELURAHAN":"KEDEWATAN","TIPEHAK":"Hak Milik","NIB":"03463","LUASTERTUL":490.0,"LUASPETA":502.56921796688516,"Tahap":1,"TIPE":null,"NOMOR":0.0,"NIBNIBEL":null,"NAMA":null,"ASALHAK":null,"DAFTAR":null,"BERAKHIR":null,"OBJECTID":48},"geometry":{"type":"Polygon","coordinates":[[[115.24400154,-8.48857551],[115.24399956,-8.48856496],[115.24401185,-8.48850664],[115.24356444,-8.48845606],[115.24356862,-8.48857494],[115.24400154,-8.48857551]]]}},{"type":"Feature","id":49,"properties":{"KECAMATAN":"UBUD","KELURAHAN":"KEDEWATAN","TIPEHAK":"Hak Milik","NIB":"03465","LUASTERTUL":830.0,"LUASPETA":886.2387571267755,"Tahap":1,"TIPE":null,"NOMOR":4546.0,"NIBNIBEL":"3465","NAMA":"Gede Eko Prasetya","ASALHAK":"Konversi","DAFTAR":"45173","BERAKHIR":null,"OBJECTID":49},"geometry":{"type":"Polygon","coordinates":[[[115.24404202,-8.48841036],[115.24407705,-8.48834067],[115.24419667,-8.48829285],[115.24396446,-8.48809168],[115.24370351,-8.48822936],[115.24404202,-8.48841036]]]}},{"type":"Feature","id":50,"properties":{"KECAMATAN":"UBUD","KELURAHAN":"KEDEWATAN","TIPEHAK":"Hak Milik","NIB":"03467","LUASTERTUL":630.0,"LUASPETA":654.7559946392204,"Tahap":1,"TIPE":null,"NOMOR":4549.0,"NIBNIBEL":"3467","NAMA":"I Made Sarta, I Nyoman Sudarsana, I Ketut Darmawan, I Wayan Sabur, I Wayan Sara","ASALHAK":"Konversi","DAFTAR":"45188","BERAKHIR":null,"OBJECTID":50},"geometry":{"type":"Polygon","coordinates":[[[115.24403478,-8.48869741],[115.24401618,-8.48865321],[115.24400154,-8.48857551],[115.24356862,-8.48857494],[115.243569,-8.48858562],[115.24362196,-8.48867153],[115.24362252,-8.48867243],[115.24372165,-8.48871776],[115.24403478,-8.48869741]]]}},{"type":"Feature","id":51,"properties":{"KECAMATAN":"UBUD","KELURAHAN":"KEDEWATAN","TIPEHAK":"Hak Milik","NIB":"03468","LUASTERTUL":480.0,"LUASPETA":650.6234117024262,"Tahap":1,"TIPE":null,"NOMOR":4548.0,"NIBNIBEL":"03468","NAMA":"I Made Subrata","ASALHAK":"Konversi","DAFTAR":"45183","BERAKHIR":null,"OBJECTID":51},"geometry":{"type":"Polygon","coordinates":[[[115.24403478,-8.48869741],[115.24372165,-8.48871776],[115.24370183,-8.48879138],[115.24371443,-8.48882486],[115.24404854,-8.48889671],[115.24407082,-8.48881086],[115.24405905,-8.4887551],[115.24403478,-8.48869741]]]}},{"type":"Feature","id":52,"properties":{"KECAMATAN":"UBUD","KELURAHAN":"KEDEWATAN","TIPEHAK":"Hak Milik","NIB":"03469","LUASTERTUL":1060.0,"LUASPETA":1202.88667207,"Tahap":1,"TIPE":null,"NOMOR":0.0,"NIBNIBEL":null,"NAMA":null,"ASALHAK":null,"DAFTAR":null,"BERAKHIR":null,"OBJECTID":52},"geometry":{"type":"Polygon","coordinates":[[[115.24404854,-8.48889671],[115.24371443,-8.48882486],[115.24372757,-8.48885978],[115.24366734,-8.48904372],[115.2436263,-8.48910617],[115.24371434,-8.48913045],[115.24380758,-8.48914584],[115.24394072,-8.48916781],[115.24406769,-8.48903037],[115.24401817,-8.48900025],[115.24403552,-8.48894691],[115.24404854,-8.48889671]]]}},{"type":"Feature","id":53,"properties":{"KECAMATAN":"UBUD","KELURAHAN":"KEDEWATAN","TIPEHAK":"Hak Milik","NIB":"03470","LUASTERTUL":350.0,"LUASPETA":411.8211386968625,"Tahap":1,"TIPE":null,"NOMOR":0.0,"NIBNIBEL":null,"NAMA":null,"ASALHAK":null,"DAFTAR":null,"BERAKHIR":null,"OBJECTID":53},"geometry":{"type":"Polygon","coordinates":[[[115.24429717,-8.48796441],[115.24433057,-8.48773931],[115.24431824,-8.48773757],[115.24421416,-8.48775186],[115.24415873,-8.48780699],[115.24414903,-8.48787698],[115.24411176,-8.48793543],[115.24410376,-8.48794503],[115.24429717,-8.48796441]]]}},{"type":"Feature","id":54,"properties":{"KECAMATAN":"UBUD","KELURAHAN":"KEDEWATAN","TIPEHAK":"Hak Milik","NIB":"03372","LUASTERTUL":801.0,"LUASPETA":1209.28363882,"Tahap":1,"TIPE":null,"NOMOR":0.0,"NIBNIBEL":null,"NAMA":null,"ASALHAK":null,"DAFTAR":null,"BERAKHIR":null,"OBJECTID":54},"geometry":{"type":"Polygon","coordinates":[[[115.24613343,-8.49017736],[115.24624979,-8.48995116],[115.24629605,-8.4898627],[115.24631,-8.48977178],[115.24602779,-8.48975212],[115.24600396,-8.48989953],[115.24595481,-8.49013993],[115.24613343,-8.49017736]]]}},{"type":"Feature","id":55,"properties":{"KECAMATAN":"UBUD","KELURAHAN":"KEDEWATAN","TIPEHAK":"Hak Milik","NIB":"03379","LUASTERTUL":865.0,"LUASPETA":940.2678007757288,"Tahap":1,"TIPE":null,"NOMOR":0.0,"NIBNIBEL":null,"NAMA":null,"ASALHAK":null,"DAFTAR":null,"BERAKHIR":null,"OBJECTID":55},"geometry":{"type":"Polygon","coordinates":[[[115.24445312,-8.48776941],[115.24444632,-8.48797936],[115.24447377,-8.48797961],[115.24473884,-8.48798201],[115.24477551,-8.48798234],[115.24481752,-8.48798495],[115.24479624,-8.48776047],[115.24445312,-8.48776941]]]}},{"type":"Feature","id":56,"properties":{"KECAMATAN":"UBUD","KELURAHAN":"KEDEWATAN","TIPEHAK":"Hak Milik","NIB":"03380","LUASTERTUL":1135.0,"LUASPETA":1032.47201889,"Tahap":1,"TIPE":null,"NOMOR":0.0,"NIBNIBEL":null,"NAMA":null,"ASALHAK":null,"DAFTAR":null,"BERAKHIR":null,"OBJECTID":56},"geometry":{"type":"Polygon","coordinates":[[[115.24518878,-8.48799704],[115.24518726,-8.48777434],[115.24506738,-8.48777617],[115.24495904,-8.48777251],[115.24485083,-8.48776152],[115.24479624,-8.48776047],[115.24481752,-8.48798495],[115.24500556,-8.48799661],[115.24518878,-8.48799704]]]}},{"type":"Feature","id":57,"properties":{"KECAMATAN":"UBUD","KELURAHAN":"KEDEWATAN","TIPEHAK":"Hak Milik","NIB":"03381","LUASTERTUL":385.0,"LUASPETA":368.16698666475577,"Tahap":1,"TIPE":null,"NOMOR":0.0,"NIBNIBEL":null,"NAMA":null,"ASALHAK":null,"DAFTAR":null,"BERAKHIR":null,"OBJECTID":57},"geometry":{"type":"Polygon","coordinates":[[[115.24429717,-8.48796441],[115.24444632,-8.48797936],[115.24445312,-8.48776941],[115.24436727,-8.48774449],[115.24433057,-8.48773931],[115.24429717,-8.48796441]]]}},{"type":"Feature","id":58,"properties":{"KECAMATAN":"UBUD","KELURAHAN":"KEDEWATAN","TIPEHAK":"Hak Milik","NIB":"03382","LUASTERTUL":1420.0,"LUASPETA":1331.31003016,"Tahap":1,"TIPE":null,"NOMOR":0.0,"NIBNIBEL":null,"NAMA":null,"ASALHAK":null,"DAFTAR":null,"BERAKHIR":null,"OBJECTID":58},"geometry":{"type":"Polygon","coordinates":[[[115.24514413,-8.48710746],[115.24481666,-8.48710057],[115.24481057,-8.48742758],[115.24496145,-8.48743715],[115.24501272,-8.48743558],[115.24509405,-8.48744159],[115.24514138,-8.48744484],[115.24514413,-8.48710746]]]}},{"type":"Feature","id":59,"properties":{"KECAMATAN":"UBUD","KELURAHAN":"KEDEWATAN","TIPEHAK":"Kosong","NIB":"03644","LUASTERTUL":1676.0,"LUASPETA":1007.36004211,"Tahap":1,"TIPE":null,"NOMOR":0.0,"NIBNIBEL":null,"NAMA":null,"ASALHAK":null,"DAFTAR":null,"BERAKHIR":null,"OBJECTID":59},"geometry":{"type":"Polygon","coordinates":[[[115.24552871,-8.49012508],[115.24551218,-8.49017868],[115.24549755,-8.4902863],[115.24543867,-8.49045557],[115.24541023,-8.49048171],[115.24542177,-8.49048263],[115.24547658,-8.49048095],[115.24555905,-8.4904924],[115.2456324,-8.49050213],[115.24566043,-8.49050654],[115.24573481,-8.49038349],[115.24578894,-8.49025546],[115.24563688,-8.49017827],[115.24553289,-8.49012547],[115.24552871,-8.49012508]]]}},{"type":"Feature","id":60,"properties":{"KECAMATAN":"UBUD","KELURAHAN":"KEDEWATAN","TIPEHAK":"Hak Milik","NIB":"03444","LUASTERTUL":1832.0,"LUASPETA":1550.46769731,"Tahap":2,"TIPE":null,"NOMOR":0.0,"NIBNIBEL":null,"NAMA":null,"ASALHAK":null,"DAFTAR":null,"BERAKHIR":null,"OBJECTID":60},"geometry":{"type":"Polygon","coordinates":[[[115.24498816,-8.49143514],[115.24499324,-8.4915813],[115.24497256,-8.49168094],[115.24496957,-8.49169111],[115.24518309,-8.49173726],[115.24518985,-8.49173854],[115.24531257,-8.49176185],[115.24537388,-8.49151444],[115.24560396,-8.4915634],[115.24562338,-8.49150429],[115.24533475,-8.4914518],[115.24519152,-8.49141679],[115.24518281,-8.49136818],[115.24514252,-8.49139744],[115.24512577,-8.4913863],[115.24509837,-8.49141272],[115.24505723,-8.49141989],[115.24501928,-8.49142762],[115.24498816,-8.49143514]]]}},{"type":"Feature","id":61,"properties":{"KECAMATAN":"UBUD","KELURAHAN":"KEDEWATAN","TIPEHAK":"Hak Milik","NIB":"03452","LUASTERTUL":1200.0,"LUASPETA":1085.99960804,"Tahap":1,"TIPE":null,"NOMOR":0.0,"NIBNIBEL":null,"NAMA":null,"ASALHAK":null,"DAFTAR":null,"BERAKHIR":null,"OBJECTID":61},"geometry":{"type":"Polygon","coordinates":[[[115.24557867,-8.4894778],[115.24560419,-8.4895013],[115.2456369,-8.48951686],[115.24570298,-8.48951815],[115.24573882,-8.48952242],[115.24585921,-8.48951965],[115.24590047,-8.48952293],[115.24598771,-8.48951033],[115.24606043,-8.48950456],[115.24605846,-8.48949803],[115.246034,-8.48932352],[115.24601108,-8.48932347],[115.24558877,-8.48932262],[115.24558845,-8.48934395],[115.24557867,-8.4894778]]]}},{"type":"Feature","id":62,"properties":{"KECAMATAN":"UBUD","KELURAHAN":"KEDEWATAN","TIPEHAK":"Kosong","NIB":"03985","LUASTERTUL":425.0,"LUASPETA":1059.81513439,"Tahap":2,"TIPE":null,"NOMOR":0.0,"NIBNIBEL":null,"NAMA":null,"ASALHAK":null,"DAFTAR":null,"BERAKHIR":null,"OBJECTID":62},"geometry":{"type":"Polygon","coordinates":[[[115.24591072,-8.4906459],[115.24593577,-8.49059408],[115.2459368,-8.49059025],[115.24585334,-8.49056582],[115.24577989,-8.49054676],[115.24570967,-8.49053066],[115.2456735,-8.49052294],[115.24560236,-8.49051563],[115.24555311,-8.49050531],[115.24551765,-8.49049889],[115.24548645,-8.49049478],[115.24547597,-8.49049566],[115.24542202,-8.49049713],[115.24539441,-8.49049499],[115.24536296,-8.49048687],[115.24535471,-8.49048229],[115.24534064,-8.49046398],[115.24533822,-8.49046066],[115.24532485,-8.49044599],[115.24531405,-8.49043872],[115.24530189,-8.49043472],[115.24526455,-8.49041821],[115.24510149,-8.49076962],[115.24522817,-8.49082292],[115.24528523,-8.49069608],[115.2453614,-8.49060132],[115.24546178,-8.4905554],[115.2456076,-8.49056124],[115.24567984,-8.49057037],[115.24572428,-8.4905816],[115.24578824,-8.49060466],[115.24582965,-8.49061848],[115.24591072,-8.4906459]]]}},{"type":"Feature","id":63,"properties":{"KECAMATAN":"UBUD","KELURAHAN":"KEDEWATAN","TIPEHAK":"Kosong","NIB":"03974","LUASTERTUL":392.0,"LUASPETA":304.78883346590885,"Tahap":2,"TIPE":null,"NOMOR":0.0,"NIBNIBEL":null,"NAMA":null,"ASALHAK":null,"DAFTAR":null,"BERAKHIR":null,"OBJECTID":63},"geometry":{"type":"Polygon","coordinates":[[[115.24591072,-8.4906459],[115.24582965,-8.49061848],[115.24578824,-8.49060466],[115.24571399,-8.49077753],[115.24583147,-8.49083014],[115.24591072,-8.4906459]]]}},{"type":"Feature","id":64,"properties":{"KECAMATAN":"UBUD","KELURAHAN":"KEDEWATAN","TIPEHAK":"Kosong","NIB":"04151","LUASTERTUL":1434.0,"LUASPETA":1607.30874284,"Tahap":2,"TIPE":null,"NOMOR":0.0,"NIBNIBEL":null,"NAMA":null,"ASALHAK":null,"DAFTAR":null,"BERAKHIR":null,"OBJECTID":64},"geometry":{"type":"Polygon","coordinates":[[[115.24519963,-8.4909398],[115.24522817,-8.49082292],[115.24510149,-8.49076962],[115.24506605,-8.49096606],[115.24506007,-8.49100251],[115.24503971,-8.4910418],[115.24502772,-8.49110775],[115.24503296,-8.49114542],[115.24500144,-8.491232],[115.24499213,-8.49130189],[115.2450024,-8.49134434],[115.24498623,-8.4914198],[115.24498064,-8.49143512],[115.24483845,-8.49150899],[115.24481244,-8.49150005],[115.24480471,-8.49147829],[115.24478888,-8.491464],[115.2447398,-8.49146174],[115.24471052,-8.4914352],[115.24469705,-8.49144101],[115.24465993,-8.4914204],[115.24465138,-8.49135622],[115.24461327,-8.49129969],[115.24459976,-8.49126191],[115.24459151,-8.49117987],[115.2445534,-8.49125047],[115.24454494,-8.49127728],[115.24455263,-8.49129767],[115.24454313,-8.49132211],[115.24453938,-8.4914255],[115.24451029,-8.49141902],[115.24449814,-8.49144281],[115.24451992,-8.49144734],[115.24453108,-8.49148919],[115.24456192,-8.49153166],[115.24462833,-8.49156324],[115.2447119,-8.49159999],[115.24474055,-8.49167336],[115.2447116,-8.49166173],[115.24455355,-8.49163057],[115.2444469,-8.49165487],[115.24459921,-8.49165495],[115.24465144,-8.49166681],[115.24471235,-8.49169419],[115.24479667,-8.49170896],[115.24479871,-8.49172014],[115.24481321,-8.49174392],[115.24477607,-8.49176485],[115.24475008,-8.49180858],[115.24482907,-8.49174882],[115.24496957,-8.49169111],[115.24497256,-8.49168094],[115.24499324,-8.4915813],[115.24498816,-8.49143514],[115.24500858,-8.49134499],[115.24499823,-8.49130125],[115.24500828,-8.49123574],[115.24503917,-8.49114865],[115.24503447,-8.49110799],[115.24504806,-8.49104522],[115.24506497,-8.49100344],[115.24507043,-8.49097345],[115.24508196,-8.49095219],[115.24507849,-8.49092538],[115.24509108,-8.49089951],[115.24510095,-8.49088487],[115.24515166,-8.49088459],[115.24515645,-8.4909227],[115.24519963,-8.4909398]]]}},{"type":"Feature","id":65,"properties":{"KECAMATAN":"UBUD","KELURAHAN":"KEDEWATAN","TIPEHAK":"Kosong","NIB":"04152","LUASTERTUL":2455.0,"LUASPETA":3024.19302653,"Tahap":1,"TIPE":null,"NOMOR":0.0,"NIBNIBEL":null,"NAMA":null,"ASALHAK":null,"DAFTAR":null,"BERAKHIR":null,"OBJECTID":65},"geometry":{"type":"Polygon","coordinates":[[[115.24510691,-8.4893826],[115.24497977,-8.48931085],[115.24487178,-8.48921559],[115.24480318,-8.48913492],[115.24474297,-8.48904386],[115.24473744,-8.48913299],[115.24471356,-8.48926599],[115.24474619,-8.48932621],[115.24477259,-8.48943541],[115.24477688,-8.48960954],[115.24475255,-8.48967649],[115.24478988,-8.48979314],[115.24487447,-8.48978092],[115.24489041,-8.48983928],[115.24501988,-8.48981766],[115.24499458,-8.48972448],[115.24513594,-8.48969197],[115.24515654,-8.48974046],[115.24527622,-8.48971264],[115.24526324,-8.48967613],[115.24529819,-8.48966739],[115.24529584,-8.48958873],[115.24532799,-8.48951337],[115.24537817,-8.48945994],[115.2452918,-8.48943613],[115.24510691,-8.4893826]]]}},{"type":"Feature","id":66,"properties":{"KECAMATAN":"UBUD","KELURAHAN":"KEDEWATAN","TIPEHAK":"Kosong","NIB":"04155","LUASTERTUL":1197.0,"LUASPETA":1146.15371056,"Tahap":2,"TIPE":null,"NOMOR":0.0,"NIBNIBEL":null,"NAMA":null,"ASALHAK":null,"DAFTAR":null,"BERAKHIR":null,"OBJECTID":66},"geometry":{"type":"Polygon","coordinates":[[[115.24385917,-8.49093008],[115.24382019,-8.49098938],[115.2437916,-8.49097607],[115.24379672,-8.49094781],[115.24377202,-8.49080562],[115.24371534,-8.49074816],[115.24365435,-8.49074373],[115.2436214,-8.49120081],[115.24365826,-8.49120898],[115.24369466,-8.49121354],[115.2437451,-8.49125987],[115.24374993,-8.49130146],[115.2437854,-8.49133809],[115.24390811,-8.49131344],[115.24386399,-8.49122994],[115.24384292,-8.49118036],[115.24381076,-8.49114812],[115.24381642,-8.49108532],[115.24382757,-8.49107553],[115.24383952,-8.49103591],[115.24384428,-8.49099864],[115.24385767,-8.49095476],[115.24385917,-8.49093008]]]}},{"type":"Feature","id":67,"properties":{"KECAMATAN":"UBUD","KELURAHAN":"KEDEWATAN","TIPEHAK":"Kosong","NIB":"04158","LUASTERTUL":2150.0,"LUASPETA":2066.23775099,"Tahap":2,"TIPE":null,"NOMOR":0.0,"NIBNIBEL":null,"NAMA":null,"ASALHAK":null,"DAFTAR":null,"BERAKHIR":null,"OBJECTID":67},"geometry":{"type":"Polygon","coordinates":[[[115.24526455,-8.49041821],[115.24523252,-8.49040314],[115.24517082,-8.49038614],[115.24511283,-8.49035338],[115.24505514,-8.49034815],[115.24496212,-8.49031198],[115.24488302,-8.49027557],[115.24485407,-8.49027659],[115.24478638,-8.49026248],[115.24476239,-8.49032713],[115.24477002,-8.49035151],[115.24476256,-8.49038106],[115.24472555,-8.4904207],[115.24476592,-8.49053958],[115.24474215,-8.49057503],[115.24474063,-8.4905768],[115.24473227,-8.49059335],[115.24473582,-8.49062195],[115.24478092,-8.49061344],[115.24484361,-8.49066039],[115.24489449,-8.49066906],[115.24496793,-8.49071268],[115.24503782,-8.49074866],[115.24510149,-8.49076962],[115.24526455,-8.49041821]]]}},{"type":"Feature","id":68,"properties":{"KECAMATAN":"UBUD","KELURAHAN":"KEDEWATAN","TIPEHAK":"Kosong","NIB":"04074","LUASTERTUL":1215.0,"LUASPETA":410.90385276470045,"Tahap":1,"TIPE":null,"NOMOR":0.0,"NIBNIBEL":null,"NAMA":null,"ASALHAK":null,"DAFTAR":null,"BERAKHIR":null,"OBJECTID":68},"geometry":{"type":"Polygon","coordinates":[[[115.24447491,-8.48708153],[115.24448691,-8.48685537],[115.24434442,-8.48684855],[115.24434183,-8.48686457],[115.24433741,-8.48689186],[115.24432534,-8.4869665],[115.24432996,-8.4870727],[115.24447491,-8.48708153]]]}},{"type":"Feature","id":69,"properties":{"KECAMATAN":"UBUD","KELURAHAN":"KEDEWATAN","TIPEHAK":"Hak Milik","NIB":"04081","LUASTERTUL":2290.0,"LUASPETA":2804.91774173,"Tahap":1,"TIPE":null,"NOMOR":0.0,"NIBNIBEL":null,"NAMA":null,"ASALHAK":null,"DAFTAR":null,"BERAKHIR":null,"OBJECTID":69},"geometry":{"type":"Polygon","coordinates":[[[115.24523989,-8.48867124],[115.24524494,-8.48842401],[115.24556464,-8.48842538],[115.24556413,-8.48837771],[115.24557178,-8.48823575],[115.24520798,-8.48826601],[115.24500238,-8.48832304],[115.24495246,-8.48833689],[115.2448409,-8.48835811],[115.24474753,-8.48835624],[115.24475179,-8.48863745],[115.24475231,-8.48867227],[115.24500911,-8.48867196],[115.24523989,-8.48867169],[115.24523989,-8.48867124]]]}},{"type":"Feature","id":70,"properties":{"KECAMATAN":"UBUD","KELURAHAN":"KEDEWATAN","TIPEHAK":"Hak Milik","NIB":"04137","LUASTERTUL":2800.0,"LUASPETA":2709.57440632,"Tahap":1,"TIPE":null,"NOMOR":0.0,"NIBNIBEL":null,"NAMA":null,"ASALHAK":null,"DAFTAR":null,"BERAKHIR":null,"OBJECTID":70},"geometry":{"type":"Polygon","coordinates":[[[115.24415004,-8.48874052],[115.24447429,-8.48875016],[115.24447851,-8.48855659],[115.24468295,-8.48855999],[115.24468586,-8.48835501],[115.24461295,-8.48835356],[115.24454936,-8.48834429],[115.2441983,-8.48829309],[115.24419667,-8.48829285],[115.24407705,-8.48834067],[115.24402501,-8.48844422],[115.24399936,-8.48856394],[115.24404267,-8.4885613],[115.24415004,-8.48874052]]]}},{"type":"Feature","id":71,"properties":{"KECAMATAN":"UBUD","KELURAHAN":"KEDEWATAN","TIPEHAK":"Hak Milik","NIB":"04138","LUASTERTUL":490.0,"LUASPETA":527.3453696280245,"Tahap":1,"TIPE":null,"NOMOR":0.0,"NIBNIBEL":null,"NAMA":null,"ASALHAK":null,"DAFTAR":null,"BERAKHIR":null,"OBJECTID":71},"geometry":{"type":"Polygon","coordinates":[[[115.24410376,-8.48794503],[115.24408655,-8.48796568],[115.24401038,-8.48800317],[115.24396446,-8.48809168],[115.24419667,-8.48829285],[115.24419831,-8.48829309],[115.2441961,-8.48822006],[115.24417065,-8.48800135],[115.24410376,-8.48794503]]]}},{"type":"Feature","id":72,"properties":{"KECAMATAN":"UBUD","KELURAHAN":"KEDEWATAN","TIPEHAK":"Kosong","NIB":"04015","LUASTERTUL":1270.0,"LUASPETA":1285.37690975,"Tahap":1,"TIPE":null,"NOMOR":0.0,"NIBNIBEL":null,"NAMA":null,"ASALHAK":null,"DAFTAR":null,"BERAKHIR":null,"OBJECTID":72},"geometry":{"type":"Polygon","coordinates":[[[115.24532665,-8.4891507],[115.24536115,-8.48890013],[115.24526505,-8.48889547],[115.24502445,-8.48890403],[115.24475196,-8.48889881],[115.24474638,-8.48898893],[115.24513026,-8.4891006],[115.24512936,-8.48911776],[115.24532663,-8.4891508],[115.24532665,-8.4891507]]]}},{"type":"Feature","id":73,"properties":{"KECAMATAN":"UBUD","KELURAHAN":"KEDEWATAN","TIPEHAK":"Hak Milik","NIB":"03757","LUASTERTUL":1819.0,"LUASPETA":1429.24043063,"Tahap":2,"TIPE":null,"NOMOR":0.0,"NIBNIBEL":null,"NAMA":null,"ASALHAK":null,"DAFTAR":null,"BERAKHIR":null,"OBJECTID":73},"geometry":{"type":"Polygon","coordinates":[[[115.24522817,-8.49082292],[115.24529187,-8.49084989],[115.24543201,-8.49089983],[115.24548997,-8.49092383],[115.24558099,-8.49071617],[115.24571399,-8.49077753],[115.24578824,-8.49060466],[115.24572428,-8.4905816],[115.24567984,-8.49057037],[115.2456076,-8.49056124],[115.24546178,-8.4905554],[115.2453614,-8.49060132],[115.24528523,-8.49069608],[115.24522817,-8.49082292]]]}},{"type":"Feature","id":74,"properties":{"KECAMATAN":"UBUD","KELURAHAN":"KEDEWATAN","TIPEHAK":"Kosong","NIB":"04823","LUASTERTUL":902.0,"LUASPETA":902.0889136323682,"Tahap":1,"TIPE":null,"NOMOR":0.0,"NIBNIBEL":null,"NAMA":null,"ASALHAK":null,"DAFTAR":null,"BERAKHIR":null,"OBJECTID":74},"geometry":{"type":"Polygon","coordinates":[[[115.24448691,-8.48685537],[115.24447491,-8.48708153],[115.24474847,-8.4870982],[115.24477187,-8.48709963],[115.24481666,-8.48710057],[115.24482456,-8.48688861],[115.24476013,-8.48688732],[115.24448691,-8.48685537]]]}},{"type":"Feature","id":75,"properties":{"KECAMATAN":"UBUD","KELURAHAN":"KEDEWATAN","TIPEHAK":"Kosong","NIB":"04987","LUASTERTUL":0.0,"LUASPETA":554.4187348592827,"Tahap":1,"TIPE":null,"NOMOR":0.0,"NIBNIBEL":null,"NAMA":null,"ASALHAK":null,"DAFTAR":null,"BERAKHIR":null,"OBJECTID":75},"geometry":{"type":"Polygon","coordinates":[[[115.24570292,-8.48954159],[115.24570262,-8.48956534],[115.24563688,-8.49017827],[115.24578894,-8.49025546],[115.24593091,-8.49031568],[115.24595481,-8.49013993],[115.24593953,-8.49021463],[115.2456758,-8.49013732],[115.24571966,-8.4897628],[115.2457331,-8.48956962],[115.24573596,-8.48954602],[115.24570292,-8.48954159]]]}},{"type":"Feature","id":76,"properties":{"KECAMATAN":"UBUD","KELURAHAN":"KEDEWATAN","TIPEHAK":"Kosong","NIB":"04949","LUASTERTUL":0.0,"LUASPETA":710.8850955089059,"Tahap":1,"TIPE":null,"NOMOR":0.0,"NIBNIBEL":null,"NAMA":null,"ASALHAK":null,"DAFTAR":null,"BERAKHIR":null,"OBJECTID":76},"geometry":{"type":"Polygon","coordinates":[[[115.24475231,-8.48867227],[115.24475179,-8.48863745],[115.24474753,-8.48835624],[115.24468586,-8.48835501],[115.24468295,-8.48855999],[115.24467488,-8.4889827],[115.24469026,-8.48900326],[115.24473737,-8.48905247],[115.24472565,-8.48907174],[115.24466432,-8.48912971],[115.24466235,-8.48918329],[115.24466836,-8.48922234],[115.24462232,-8.48923233],[115.24460789,-8.48923071],[115.24471356,-8.48926599],[115.24473744,-8.48913299],[115.24474297,-8.48904386],[115.24474638,-8.48898893],[115.24475196,-8.48889881],[115.244755,-8.48884978],[115.24475231,-8.48867227]]]}},{"type":"Feature","id":77,"properties":{"KECAMATAN":"UBUD","KELURAHAN":"KEDEWATAN","TIPEHAK":"Kosong","NIB":"04948","LUASTERTUL":0.0,"LUASPETA":242.19463802555913,"Tahap":1,"TIPE":null,"NOMOR":0.0,"NIBNIBEL":null,"NAMA":null,"ASALHAK":null,"DAFTAR":null,"BERAKHIR":null,"OBJECTID":77},"geometry":{"type":"Polygon","coordinates":[[[115.24425376,-8.48905156],[115.24421686,-8.48904173],[115.24419846,-8.48902557],[115.24407704,-8.48900228],[115.2440603,-8.48902046],[115.24401817,-8.48900025],[115.24406769,-8.48903037],[115.24414931,-8.48905997],[115.24430011,-8.48911467],[115.24445982,-8.48918128],[115.24456805,-8.48921741],[115.24447183,-8.48912406],[115.24444129,-8.48911056],[115.2444066,-8.48913757],[115.24434615,-8.48909706],[115.24425376,-8.48905156]]]}},{"type":"Feature","id":78,"properties":{"KECAMATAN":"UBUD","KELURAHAN":"KEDEWATAN","TIPEHAK":"Kosong","NIB":"04943","LUASTERTUL":0.0,"LUASPETA":270.8393510094071,"Tahap":1,"TIPE":null,"NOMOR":0.0,"NIBNIBEL":null,"NAMA":null,"ASALHAK":null,"DAFTAR":null,"BERAKHIR":null,"OBJECTID":78},"geometry":{"type":"Polygon","coordinates":[[[115.24401817,-8.48900025],[115.24415004,-8.48874052],[115.24404267,-8.4885613],[115.24399978,-8.48856392],[115.24399956,-8.48856496],[115.24400154,-8.48857551],[115.24401618,-8.48865321],[115.24403478,-8.48869741],[115.24405905,-8.4887551],[115.24407082,-8.48881086],[115.24404854,-8.48889671],[115.24403552,-8.48894691],[115.24401817,-8.48900025]]]}},{"type":"Feature","id":79,"properties":{"KECAMATAN":"UBUD","KELURAHAN":"KEDEWATAN","TIPEHAK":"Hak Milik","NIB":"02579","LUASTERTUL":1150.0,"LUASPETA":1432.91918805,"Tahap":2,"TIPE":null,"NOMOR":0.0,"NIBNIBEL":null,"NAMA":null,"ASALHAK":null,"DAFTAR":null,"BERAKHIR":null,"OBJECTID":79},"geometry":{"type":"Polygon","coordinates":[[[115.24313842,-8.49162218],[115.24316402,-8.49163246],[115.24320138,-8.49164778],[115.24328361,-8.49168121],[115.24344739,-8.49169384],[115.24346673,-8.4917045],[115.24350632,-8.49173291],[115.2435308,-8.49173827],[115.24354704,-8.4917391],[115.24360162,-8.49175856],[115.24373252,-8.49176573],[115.24375563,-8.49174845],[115.24381002,-8.49165995],[115.24371172,-8.49165375],[115.24367406,-8.49161935],[115.24366667,-8.49157814],[115.24361347,-8.49153498],[115.24357685,-8.49153266],[115.24353956,-8.49152676],[115.24351911,-8.49152446],[115.24344358,-8.49148331],[115.24337581,-8.49148325],[115.24335793,-8.49146132],[115.24333264,-8.49147],[115.24327146,-8.49144163],[115.24323843,-8.49142082],[115.24313842,-8.49162218]]]}},{"type":"Feature","id":80,"properties":{"KECAMATAN":"UBUD","KELURAHAN":"KEDEWATAN","TIPEHAK":"Hak Guna Bangunan","NIB":"05100","LUASTERTUL":585.0,"LUASPETA":585.2120995784,"Tahap":2,"TIPE":null,"NOMOR":0.0,"NIBNIBEL":null,"NAMA":null,"ASALHAK":null,"DAFTAR":null,"BERAKHIR":null,"OBJECTID":80},"geometry":{"type":"Polygon","coordinates":[[[115.24447087,-8.49227397],[115.24467506,-8.49232614],[115.24471797,-8.49213676],[115.24471912,-8.49213035],[115.244668,-8.49211182],[115.24464956,-8.4920736],[115.24456176,-8.49206199],[115.24451067,-8.49205282],[115.24447087,-8.49227397]]]}},{"type":"Feature","id":81,"properties":{"KECAMATAN":"UBUD","KELURAHAN":"KEDEWATAN","TIPEHAK":"Hak Guna Bangunan","NIB":"05101","LUASTERTUL":1215.0,"LUASPETA":1215.19188623,"Tahap":2,"TIPE":null,"NOMOR":0.0,"NIBNIBEL":null,"NAMA":null,"ASALHAK":null,"DAFTAR":null,"BERAKHIR":null,"OBJECTID":81},"geometry":{"type":"Polygon","coordinates":[[[115.24447087,-8.49227397],[115.24451067,-8.49205282],[115.24456176,-8.49206199],[115.24464956,-8.4920736],[115.244668,-8.49211182],[115.24471912,-8.49213035],[115.24472527,-8.49209585],[115.24473381,-8.49206142],[115.24472892,-8.49204583],[115.24472549,-8.49203992],[115.24469755,-8.49203935],[115.24465389,-8.49203769],[115.24463225,-8.4920324],[115.24454496,-8.49202141],[115.24450056,-8.49201225],[115.24445476,-8.49200602],[115.24443141,-8.49200686],[115.24441185,-8.49201691],[115.24438845,-8.49201582],[115.24436732,-8.49201613],[115.24436301,-8.49199141],[115.24429342,-8.49199164],[115.24427104,-8.49198854],[115.24425973,-8.49198678],[115.24424257,-8.4919403],[115.24422013,-8.49194532],[115.24419728,-8.49194697],[115.24417453,-8.49194642],[115.24415859,-8.49194324],[115.24412514,-8.49192833],[115.24412149,-8.49192853],[115.24409237,-8.4919994],[115.24408415,-8.49205222],[115.24407804,-8.49206954],[115.24404866,-8.49213421],[115.24404785,-8.49213599],[115.24406524,-8.49214766],[115.2440759,-8.49215977],[115.24408754,-8.49216207],[115.24410406,-8.4921567],[115.24413727,-8.49215578],[115.24415722,-8.49216682],[115.24418027,-8.49218192],[115.24418782,-8.49217934],[115.24420762,-8.49217208],[115.24422743,-8.49216605],[115.24425433,-8.49217443],[115.24428579,-8.4921833],[115.24431028,-8.49220027],[115.24433069,-8.49219978],[115.24435415,-8.49219696],[115.24437781,-8.49219654],[115.24439362,-8.49219548],[115.24442106,-8.49220181],[115.24443246,-8.49221291],[115.24447087,-8.49227397]]]}},{"type":"Feature","id":82,"properties":{"KECAMATAN":"UBUD","KELURAHAN":"KEDEWATAN","TIPEHAK":"Kosong","NIB":"04743","LUASTERTUL":1856.0,"LUASPETA":2371.22590185,"Tahap":2,"TIPE":null,"NOMOR":0.0,"NIBNIBEL":null,"NAMA":null,"ASALHAK":null,"DAFTAR":null,"BERAKHIR":null,"OBJECTID":82},"geometry":{"type":"Polygon","coordinates":[[[115.24282077,-8.49125338],[115.24280802,-8.49122808],[115.24271969,-8.49117235],[115.24269103,-8.49115738],[115.24268689,-8.49112971],[115.24263239,-8.49111199],[115.24262569,-8.49112101],[115.24260958,-8.49107893],[115.24256813,-8.49106338],[115.24261487,-8.49095409],[115.24259938,-8.49090412],[115.24260651,-8.49086902],[115.24241183,-8.49100497],[115.24247108,-8.49104885],[115.24251945,-8.4910911],[115.24254471,-8.49110873],[115.24258996,-8.49114431],[115.24264549,-8.49122921],[115.24262343,-8.49126412],[115.24260331,-8.4913472],[115.24257683,-8.49139461],[115.24253971,-8.49142937],[115.24253001,-8.4914423],[115.24258608,-8.49145609],[115.24262603,-8.4914685],[115.24267116,-8.49144927],[115.24271541,-8.49147273],[115.24277305,-8.49149584],[115.24289308,-8.49154354],[115.24296809,-8.49157573],[115.24304697,-8.49159175],[115.24304867,-8.49157841],[115.24308927,-8.49153339],[115.24309655,-8.49147682],[115.24316112,-8.49142853],[115.24320324,-8.49139695],[115.24311287,-8.49133051],[115.24304708,-8.49127531],[115.24298909,-8.49120891],[115.24294409,-8.49115028],[115.24282077,-8.49125338]]]}},{"type":"Feature","id":83,"properties":{"KECAMATAN":"UBUD","KELURAHAN":"KEDEWATAN","TIPEHAK":"Kosong","NIB":"04679","LUASTERTUL":630.0,"LUASPETA":581.482605920588,"Tahap":1,"TIPE":null,"NOMOR":0.0,"NIBNIBEL":null,"NAMA":null,"ASALHAK":null,"DAFTAR":null,"BERAKHIR":null,"OBJECTID":83},"geometry":{"type":"Polygon","coordinates":[[[115.24543253,-8.48947493],[115.24552267,-8.48944734],[115.24555837,-8.48946669],[115.24556075,-8.48920814],[115.24556083,-8.48920377],[115.24539892,-8.48916518],[115.24537817,-8.48945994],[115.24543253,-8.48947493]]]}},{"type":"Feature","id":84,"properties":{"KECAMATAN":"UBUD","KELURAHAN":"KEDEWATAN","TIPEHAK":"Hak Milik","NIB":"04683","LUASTERTUL":1700.0,"LUASPETA":1700.50288681,"Tahap":1,"TIPE":null,"NOMOR":0.0,"NIBNIBEL":null,"NAMA":null,"ASALHAK":null,"DAFTAR":null,"BERAKHIR":null,"OBJECTID":84},"geometry":{"type":"Polygon","coordinates":[[[115.24522636,-8.48745067],[115.24514138,-8.48744484],[115.24509405,-8.48744159],[115.24501272,-8.48743558],[115.24496145,-8.48743715],[115.24481057,-8.48742758],[115.24479624,-8.48776047],[115.24485083,-8.48776152],[115.24495904,-8.48777251],[115.24506738,-8.48777617],[115.24518726,-8.48777434],[115.24521921,-8.48777386],[115.24522636,-8.48745067]]]}},{"type":"Feature","id":85,"properties":{"KECAMATAN":"UBUD","KELURAHAN":"KEDEWATAN","TIPEHAK":"Kosong","NIB":"04687","LUASTERTUL":12650.0,"LUASPETA":7093.50104663,"Tahap":2,"TIPE":null,"NOMOR":0.0,"NIBNIBEL":null,"NAMA":null,"ASALHAK":null,"DAFTAR":null,"BERAKHIR":null,"OBJECTID":85},"geometry":{"type":"Polygon","coordinates":[[[115.24412149,-8.49192853],[115.24420058,-8.49175583],[115.24420411,-8.49171525],[115.24418923,-8.49168619],[115.24413353,-8.49164057],[115.24406917,-8.49158631],[115.24404076,-8.4914828],[115.24397025,-8.49137433],[115.24396158,-8.49126727],[115.24396167,-8.49125644],[115.24392757,-8.49124356],[115.24387585,-8.49123208],[115.24386399,-8.49122994],[115.24390811,-8.49131344],[115.2437854,-8.49133809],[115.24374993,-8.49130146],[115.2437451,-8.49125987],[115.24369466,-8.49121354],[115.24365826,-8.49120898],[115.2436214,-8.49120081],[115.24360113,-8.49119726],[115.24352829,-8.49115157],[115.24349106,-8.4911052],[115.2435098,-8.49093877],[115.24352551,-8.49091266],[115.24351865,-8.49087675],[115.24352029,-8.49081447],[115.24353866,-8.49074898],[115.24358995,-8.49070629],[115.24358456,-8.49066186],[115.24348413,-8.49063754],[115.243466,-8.49067064],[115.24346167,-8.49077115],[115.24343032,-8.49092902],[115.2434016,-8.49105552],[115.24332876,-8.49108503],[115.24327997,-8.49104682],[115.24325365,-8.49105819],[115.24316477,-8.49101636],[115.24310551,-8.49095712],[115.243063,-8.49096947],[115.24302031,-8.49093242],[115.2429447,-8.49096166],[115.24289996,-8.49094811],[115.24288241,-8.49103544],[115.24282077,-8.49125338],[115.24294409,-8.49115028],[115.24298909,-8.49120891],[115.24304708,-8.49127531],[115.24311287,-8.49133051],[115.24320324,-8.49139695],[115.24322223,-8.49141311],[115.24323843,-8.49142082],[115.24327146,-8.49144163],[115.24333264,-8.49147],[115.24335793,-8.49146132],[115.24337581,-8.49148325],[115.24344358,-8.49148331],[115.24351911,-8.49152446],[115.24353956,-8.49152676],[115.24357685,-8.49153266],[115.24361347,-8.49153498],[115.24366667,-8.49157814],[115.24367406,-8.49161935],[115.24371172,-8.49165375],[115.24381002,-8.49165995],[115.24375563,-8.49174845],[115.24373252,-8.49176573],[115.24373707,-8.49179169],[115.2436964,-8.49189032],[115.24369854,-8.49189545],[115.24373127,-8.49192656],[115.24385598,-8.49194399],[115.24388913,-8.49194606],[115.24392048,-8.4919788],[115.24396236,-8.49198794],[115.24408968,-8.49199899],[115.2441192,-8.49192715],[115.24412149,-8.49192853]]]}},{"type":"Feature","id":86,"properties":{"KECAMATAN":"UBUD","KELURAHAN":"KEDEWATAN","TIPEHAK":"Kosong","NIB":"04691","LUASTERTUL":1973.0,"LUASPETA":1736.41767494,"Tahap":2,"TIPE":null,"NOMOR":0.0,"NIBNIBEL":null,"NAMA":null,"ASALHAK":null,"DAFTAR":null,"BERAKHIR":null,"OBJECTID":86},"geometry":{"type":"Polygon","coordinates":[[[115.24382757,-8.49107553],[115.24383597,-8.49108425],[115.2438573,-8.49108596],[115.24387074,-8.49108727],[115.24395788,-8.49089013],[115.24399211,-8.4909163],[115.24413242,-8.49093865],[115.24425885,-8.49098935],[115.24436455,-8.49102438],[115.24447498,-8.49107381],[115.24454137,-8.49109155],[115.24455411,-8.49108094],[115.24460281,-8.49109108],[115.24462038,-8.49106665],[115.24462982,-8.49102055],[115.24464743,-8.49100429],[115.24465429,-8.49093647],[115.24469338,-8.49088913],[115.24470351,-8.49078702],[115.24469264,-8.49076707],[115.2446432,-8.4907684],[115.24462557,-8.49083402],[115.24462769,-8.49089326],[115.24461473,-8.49092906],[115.24453747,-8.49092378],[115.24447292,-8.49090792],[115.24424662,-8.49082972],[115.24417138,-8.49080626],[115.24413989,-8.49079214],[115.24408563,-8.49077042],[115.24404166,-8.49076046],[115.24400497,-8.49074543],[115.24394673,-8.49073493],[115.2438937,-8.49072048],[115.24389078,-8.49081298],[115.24385917,-8.49093008],[115.24385767,-8.49095476],[115.24384428,-8.49099864],[115.24383952,-8.49103591],[115.24382757,-8.49107553]]]}},{"type":"Feature","id":87,"properties":{"KECAMATAN":null,"KELURAHAN":null,"TIPEHAK":null,"NIB":null,"LUASTERTUL":0.0,"LUASPETA":2748.92554468,"Tahap":1,"TIPE":null,"NOMOR":0.0,"NIBNIBEL":null,"NAMA":null,"ASALHAK":null,"DAFTAR":null,"BERAKHIR":null,"OBJECTID":87},"geometry":{"type":"Polygon","coordinates":[[[115.24524898,-8.48999321],[115.24518328,-8.48998827],[115.24498806,-8.48999519],[115.24490645,-8.49001294],[115.24488411,-8.49013385],[115.24483539,-8.49020601],[115.24487301,-8.49026491],[115.24496706,-8.49030047],[115.24501584,-8.4903203],[115.24506529,-8.49033741],[115.24512448,-8.49034963],[115.24520298,-8.49038145],[115.24526455,-8.49041821],[115.24531384,-8.49043268],[115.24535477,-8.4904706],[115.24541023,-8.49048171],[115.24544799,-8.49044702],[115.24549755,-8.4902863],[115.24551218,-8.49017868],[115.24552871,-8.49012508],[115.2454391,-8.49011684],[115.24541554,-8.49004274],[115.24537192,-8.49001572],[115.2453049,-8.48999742],[115.24524898,-8.48999321]]]}},{"type":"Feature","id":88,"properties":{"KECAMATAN":null,"KELURAHAN":null,"TIPEHAK":null,"NIB":null,"LUASTERTUL":0.0,"LUASPETA":1900.4552753,"Tahap":1,"TIPE":null,"NOMOR":0.0,"NIBNIBEL":null,"NAMA":null,"ASALHAK":null,"DAFTAR":null,"BERAKHIR":null,"OBJECTID":88},"geometry":{"type":"Polygon","coordinates":[[[115.24539892,-8.48916518],[115.24532665,-8.4891507],[115.24512981,-8.48910918],[115.24504936,-8.4890804],[115.24474638,-8.48898893],[115.24474263,-8.48905994],[115.24480318,-8.48913492],[115.24487178,-8.48921559],[115.24497977,-8.48931085],[115.24510691,-8.4893826],[115.2452918,-8.48943613],[115.24537817,-8.48945994],[115.24539892,-8.48916518]]]}},{"type":"Feature","id":89,"properties":{"KECAMATAN":"UBUD","KELURAHAN":"KEDEWATAN","TIPEHAK":"Hak Guna Bangunan","NIB":"05085","LUASTERTUL":56400.0,"LUASPETA":4737.31889124,"Tahap":2,"TIPE":null,"NOMOR":0.0,"NIBNIBEL":null,"NAMA":null,"ASALHAK":null,"DAFTAR":null,"BERAKHIR":null,"OBJECTID":89},"geometry":{"type":"Polygon","coordinates":[[[115.24362314,-8.49218495],[115.24364619,-8.49211584],[115.24367401,-8.49201543],[115.24370257,-8.49190494],[115.24259828,-8.49163423],[115.24253209,-8.49164534],[115.2425076,-8.49175404],[115.24246045,-8.49183463],[115.24246551,-8.49191604],[115.2425258,-8.49195729],[115.2427646,-8.49202187],[115.24292219,-8.49204437],[115.24302639,-8.49209085],[115.24316654,-8.49211219],[115.24324478,-8.49213078],[115.24343487,-8.49215432],[115.24356468,-8.49219138],[115.24362314,-8.49218495]]]}},{"type":"Feature","id":90,"properties":{"KECAMATAN":"UBUD","KELURAHAN":"KEDEWATAN","TIPEHAK":"Hak Guna Bangunan","NIB":"05085","LUASTERTUL":56400.0,"LUASPETA":1362.97501697,"Tahap":2,"TIPE":null,"NOMOR":0.0,"NIBNIBEL":null,"NAMA":null,"ASALHAK":null,"DAFTAR":null,"BERAKHIR":null,"OBJECTID":90},"geometry":{"type":"Polygon","coordinates":[[[115.24370651,-8.49190654],[115.24367401,-8.49201543],[115.24364619,-8.49211584],[115.24362314,-8.49218495],[115.24373513,-8.49221248],[115.24385935,-8.49224302],[115.24396746,-8.49225782],[115.2440438,-8.49227064],[115.24402517,-8.49218279],[115.24407857,-8.49205989],[115.24408968,-8.49199898],[115.24394142,-8.49198337],[115.24385004,-8.49193942],[115.24375103,-8.49192085],[115.24370651,-8.49190654]]]}},{"type":"Feature","id":91,"properties":{"KECAMATAN":"UBUD","KELURAHAN":"KEDEWATAN","TIPEHAK":"Hak Guna Bangunan","NIB":"05085","LUASTERTUL":56400.0,"LUASPETA":1944.52521973,"Tahap":2,"TIPE":null,"NOMOR":0.0,"NIBNIBEL":null,"NAMA":null,"ASALHAK":null,"DAFTAR":null,"BERAKHIR":null,"OBJECTID":91},"geometry":{"type":"Polygon","coordinates":[[[115.24370651,-8.49190654],[115.24373479,-8.49177871],[115.24360162,-8.49175856],[115.24352805,-8.49173676],[115.24345706,-8.49169917],[115.24328361,-8.49168121],[115.2431827,-8.49164012],[115.24307874,-8.49159821],[115.24296809,-8.49157573],[115.24289308,-8.49154354],[115.24277305,-8.49149584],[115.2427198,-8.49146795],[115.24263665,-8.49153018],[115.24259828,-8.49163423],[115.24370651,-8.49190654]]]}}]}